{"type": "FeatureCollection", "features": [{"type": "Feature", "geometry": {"type": "Point", "coordinates": [2.3522, 48.8567]}, "properties": {"name": "Paris", "pop": 2103778}}, {"type": "Feature", "geometry": {"type": "Point", "coordinates": [5.3764, 43.2967]}, "properties": {"name": "Marseille", "pop": 886040}}, {"type": "Feature", "geometry": {"type": "Point", "coordinates": [4.835, 45.7675]}, "properties": {"name": "Lyon", "pop": 519127}}, {"type": "Feature", "geometry": {"type": "Point", "coordinates": [1.4433, 43.6044]}, "properties": {"name": "Toulouse", "pop": 514819}}, {"type": "Feature", "geometry": {"type": "Point", "coordinates": [7.2683, 43.7019]}, "properties": {"name": "Nice", "pop": 357737}}, {"type": "Feature", "geometry": {"type": "Point", "coordinates": [-1.5539, 47.2172]}, "properties": {"name": "Nantes", "pop": 327734}}, {"type": "Feature", "geometry": {"type": "Point", "coordinates": [3.8772, 43.6109]}, "properties": {"name": "Montpellier", "pop": 310240}}, {"type": "Feature", "geometry": {"type": "Point", "coordinates": [7.7522, 48.5733]}, "properties": {"name": "Strasbourg", "pop": 293771}}, {"type": "Feature", "geometry": {"type": "Point", "coordinates": [-0.5794, 44.8378]}, "properties": {"name": "Bordeaux", "pop": 267991}}, {"type": "Feature", "geometry": {"type": "Point", "coordinates": [3.0575, 50.6319]}, "properties": {"name": "Lille", "pop": 238246}}, {"type": "Feature", "geometry": {"type": "Point", "coordinates": [-1.6808, 48.1142]}, "properties": {"name": "Rennes", "pop": 230890}}, {"type": "Feature", "geometry": {"type": "Point", "coordinates": [5.9306, 43.125]}, "properties": {"name": "Toulon", "pop": 179116}}, {"type": "Feature", "geometry": {"type": "Point", "coordinates": [4.0286, 49.2653]}, "properties": {"name": "Reims", "pop": 177674}}, {"type": "Feature", "geometry": {"type": "Point", "coordinates": [4.3897, 45.4339]}, "properties": {"name": "Saint-Étienne", "pop": 173136}}, {"type": "Feature", "geometry": {"type": "Point", "coordinates": [0.1081, 49.4942]}, "properties": {"name": "Le Havre", "pop": 166687}}, {"type": "Feature", "geometry": {"type": "Point", "coordinates": [4.8794, 45.7661]}, "properties": {"name": "Villeurbanne", "pop": 163684}}, {"type": "Feature", "geometry": {"type": "Point", "coordinates": [5.0419, 47.3231]}, "properties": {"name": "Dijon", "pop": 161830}}, {"type": "Feature", "geometry": {"type": "Point", "coordinates": [-0.5556, 47.4728]}, "properties": {"name": "Angers", "pop": 159022}}, {"type": "Feature", "geometry": {"type": "Point", "coordinates": [5.7264, 45.1869]}, "properties": {"name": "Grenoble", "pop": 156140}}, {"type": "Feature", "geometry": {"type": "Point", "coordinates": [4.3597, 43.8383]}, "properties": {"name": "Nîmes", "pop": 151839}}, {"type": "Feature", "geometry": {"type": "Point", "coordinates": [5.4456, 43.5278]}, "properties": {"name": "Aix-en-Provence", "pop": 149695}}, {"type": "Feature", "geometry": {"type": "Point", "coordinates": [2.3539, 48.9356]}, "properties": {"name": "Saint-Denis", "pop": 149077}}, {"type": "Feature", "geometry": {"type": "Point", "coordinates": [3.0869, 45.7797]}, "properties": {"name": "Clermont-Ferrand", "pop": 146351}}, {"type": "Feature", "geometry": {"type": "Point", "coordinates": [0.1969, 48.0042]}, "properties": {"name": "Le Mans", "pop": 146249}}, {"type": "Feature", "geometry": {"type": "Point", "coordinates": [-4.4861, 48.3906]}, "properties": {"name": "Brest", "pop": 142346}}, {"type": "Feature", "geometry": {"type": "Point", "coordinates": [0.6883, 47.3928]}, "properties": {"name": "Tours", "pop": 139259}}, {"type": "Feature", "geometry": {"type": "Point", "coordinates": [2.2978, 49.8919]}, "properties": {"name": "Amiens", "pop": 136449}}, {"type": "Feature", "geometry": {"type": "Point", "coordinates": [6.1294, 45.8992]}, "properties": {"name": "Annecy", "pop": 132117}}, {"type": "Feature", "geometry": {"type": "Point", "coordinates": [1.2617, 45.8344]}, "properties": {"name": "Limoges", "pop": 129937}}, {"type": "Feature", "geometry": {"type": "Point", "coordinates": [6.1769, 49.1197]}, "properties": {"name": "Metz", "pop": 122572}}, {"type": "Feature", "geometry": {"type": "Point", "coordinates": [2.8947, 42.6975]}, "properties": {"name": "Perpignan", "pop": 121616}}, {"type": "Feature", "geometry": {"type": "Point", "coordinates": [2.2414, 48.8353]}, "properties": {"name": "Boulogne-Billancourt", "pop": 119019}}, {"type": "Feature", "geometry": {"type": "Point", "coordinates": [6.0214, 47.2422]}, "properties": {"name": "Besançon", "pop": 118489}}, {"type": "Feature", "geometry": {"type": "Point", "coordinates": [1.1025, 49.4431]}, "properties": {"name": "Rouen", "pop": 117662}}, {"type": "Feature", "geometry": {"type": "Point", "coordinates": [1.9042, 47.9022]}, "properties": {"name": "Orléans", "pop": 116357}}, {"type": "Feature", "geometry": {"type": "Point", "coordinates": [2.4431, 48.8603]}, "properties": {"name": "Montreuil", "pop": 111934}}, {"type": "Feature", "geometry": {"type": "Point", "coordinates": [-0.3636, 49.1814]}, "properties": {"name": "Caen", "pop": 109400}}, {"type": "Feature", "geometry": {"type": "Point", "coordinates": [2.2489, 48.9478]}, "properties": {"name": "Argenteuil", "pop": 106130}}, {"type": "Feature", "geometry": {"type": "Point", "coordinates": [7.3392, 47.7486]}, "properties": {"name": "Mulhouse", "pop": 104978}}, {"type": "Feature", "geometry": {"type": "Point", "coordinates": [6.1836, 48.6928]}, "properties": {"name": "Nancy", "pop": 103671}}, {"type": "Feature", "geometry": {"type": "Point", "coordinates": [3.1603, 50.7225]}, "properties": {"name": "Tourcoing", "pop": 98772}}, {"type": "Feature", "geometry": {"type": "Point", "coordinates": [3.1817, 50.69]}, "properties": {"name": "Roubaix", "pop": 98286}}, {"type": "Feature", "geometry": {"type": "Point", "coordinates": [2.2036, 48.8906]}, "properties": {"name": "Nanterre", "pop": 97783}}, {"type": "Feature", "geometry": {"type": "Point", "coordinates": [2.3928, 48.7875]}, "properties": {"name": "Vitry-sur-Seine", "pop": 93963}}, {"type": "Feature", "geometry": {"type": "Point", "coordinates": [2.2856, 48.9111]}, "properties": {"name": "Asnières-sur-Seine", "pop": 93941}}, {"type": "Feature", "geometry": {"type": "Point", "coordinates": [2.4531, 48.7778]}, "properties": {"name": "Créteil", "pop": 93397}}, {"type": "Feature", "geometry": {"type": "Point", "coordinates": [4.8083, 43.9486]}, "properties": {"name": "Avignon", "pop": 92188}}, {"type": "Feature", "geometry": {"type": "Point", "coordinates": [2.2522, 48.9236]}, "properties": {"name": "Colombes", "pop": 91053}}, {"type": "Feature", "geometry": {"type": "Point", "coordinates": [0.3353, 46.5811]}, "properties": {"name": "Poitiers", "pop": 89916}}, {"type": "Feature", "geometry": {"type": "Point", "coordinates": [2.3825, 48.9111]}, "properties": {"name": "Aubervilliers", "pop": 88365}}, {"type": "Feature", "geometry": {"type": "Point", "coordinates": [2.4931, 48.9364]}, "properties": {"name": "Aulnay-sous-Bois", "pop": 87599}}, {"type": "Feature", "geometry": {"type": "Point", "coordinates": [2.3764, 51.0378]}, "properties": {"name": "Dunkerque", "pop": 86263}}, {"type": "Feature", "geometry": {"type": "Point", "coordinates": [2.135, 48.805]}, "properties": {"name": "Versailles", "pop": 84095}}, {"type": "Feature", "geometry": {"type": "Point", "coordinates": [2.2522, 48.8972]}, "properties": {"name": "Courbevoie", "pop": 82902}}, {"type": "Feature", "geometry": {"type": "Point", "coordinates": [2.1883, 48.8778]}, "properties": {"name": "Rueil-Malmaison", "pop": 82874}}, {"type": "Feature", "geometry": {"type": "Point", "coordinates": [3.2161, 43.3433]}, "properties": {"name": "Béziers", "pop": 81545}}, {"type": "Feature", "geometry": {"type": "Point", "coordinates": [-0.37, 43.3008]}, "properties": {"name": "Pau", "pop": 80441}}, {"type": "Feature", "geometry": {"type": "Point", "coordinates": [-1.1514, 46.1594]}, "properties": {"name": "La Rochelle", "pop": 79851}}, {"type": "Feature", "geometry": {"type": "Point", "coordinates": [-1.625, 49.6389]}, "properties": {"name": "Cherbourg-en-Cotentin", "pop": 78258}}, {"type": "Feature", "geometry": {"type": "Point", "coordinates": [-0.645, 44.8425]}, "properties": {"name": "Mérignac", "pop": 78090}}, {"type": "Feature", "geometry": {"type": "Point", "coordinates": [2.5156, 48.8172]}, "properties": {"name": "Champigny-sur-Marne", "pop": 78072}}, {"type": "Feature", "geometry": {"type": "Point", "coordinates": [7.1231, 43.58]}, "properties": {"name": "Antibes", "pop": 77637}}, {"type": "Feature", "geometry": {"type": "Point", "coordinates": [2.4856, 48.8025]}, "properties": {"name": "Saint-Maur-des-Fossés", "pop": 76572}}, {"type": "Feature", "geometry": {"type": "Point", "coordinates": [8.7364, 41.9256]}, "properties": {"name": "Ajaccio", "pop": 76320}}, {"type": "Feature", "geometry": {"type": "Point", "coordinates": [-2.2139, 47.2736]}, "properties": {"name": "Saint-Nazaire", "pop": 74568}}, {"type": "Feature", "geometry": {"type": "Point", "coordinates": [7.0214, 43.5525]}, "properties": {"name": "Cannes", "pop": 74350}}, {"type": "Feature", "geometry": {"type": "Point", "coordinates": [2.5581, 48.8439]}, "properties": {"name": "Noisy-le-Grand", "pop": 72978}}, {"type": "Feature", "geometry": {"type": "Point", "coordinates": [2.445, 48.9233]}, "properties": {"name": "Drancy", "pop": 72390}}, {"type": "Feature", "geometry": {"type": "Point", "coordinates": [2.0361, 49.0522]}, "properties": {"name": "Cergy", "pop": 70906}}, {"type": "Feature", "geometry": {"type": "Point", "coordinates": [2.2878, 48.8933]}, "properties": {"name": "Levallois-Perret", "pop": 68092}}, {"type": "Feature", "geometry": {"type": "Point", "coordinates": [2.2692, 48.8231]}, "properties": {"name": "Issy-les-Moulineaux", "pop": 67669}}, {"type": "Feature", "geometry": {"type": "Point", "coordinates": [1.8556, 50.9475]}, "properties": {"name": "Calais", "pop": 67571}}, {"type": "Feature", "geometry": {"type": "Point", "coordinates": [-0.6322, 44.8058]}, "properties": {"name": "Pessac", "pop": 67339}}, {"type": "Feature", "geometry": {"type": "Point", "coordinates": [7.355, 48.0811]}, "properties": {"name": "Colmar", "pop": 66970}}, {"type": "Feature", "geometry": {"type": "Point", "coordinates": [2.4296, 48.6238]}, "properties": {"name": "Évry-Courcouronnes", "pop": 66919}}, {"type": "Feature", "geometry": {"type": "Point", "coordinates": [4.8858, 45.6969]}, "properties": {"name": "Vénissieux", "pop": 65502}}, {"type": "Feature", "geometry": {"type": "Point", "coordinates": [2.3878, 48.8139]}, "properties": {"name": "Ivry-sur-Seine", "pop": 65064}}, {"type": "Feature", "geometry": {"type": "Point", "coordinates": [4.8908, 44.9325]}, "properties": {"name": "Valence", "pop": 64458}}, {"type": "Feature", "geometry": {"type": "Point", "coordinates": [2.3056, 48.9036]}, "properties": {"name": "Clichy", "pop": 64410}}, {"type": "Feature", "geometry": {"type": "Point", "coordinates": [2.2967, 48.7533]}, "properties": {"name": "Antony", "pop": 64263}}, {"type": "Feature", "geometry": {"type": "Point", "coordinates": [2.3958, 47.0794]}, "properties": {"name": "Bourges", "pop": 64186}}, {"type": "Feature", "geometry": {"type": "Point", "coordinates": [5.8783, 43.1031]}, "properties": {"name": "La Seyne-sur-Mer", "pop": 63732}}, {"type": "Feature", "geometry": {"type": "Point", "coordinates": [1.355, 44.0172]}, "properties": {"name": "Montauban", "pop": 62945}}, {"type": "Feature", "geometry": {"type": "Point", "coordinates": [3.1442, 50.6228]}, "properties": {"name": "Villeneuve-d'Ascq", "pop": 62868}}, {"type": "Feature", "geometry": {"type": "Point", "coordinates": [2.4611, 48.9386]}, "properties": {"name": "Le Blanc-Mesnil", "pop": 62376}}, {"type": "Feature", "geometry": {"type": "Point", "coordinates": [4.0781, 48.2989]}, "properties": {"name": "Troyes", "pop": 62088}}, {"type": "Feature", "geometry": {"type": "Point", "coordinates": [2.4072, 48.8981]}, "properties": {"name": "Pantin", "pop": 61929}}, {"type": "Feature", "geometry": {"type": "Point", "coordinates": [2.3611, 48.7939]}, "properties": {"name": "Villejuif", "pop": 60183}}, {"type": "Feature", "geometry": {"type": "Point", "coordinates": [5.9208, 45.5664]}, "properties": {"name": "Chambéry", "pop": 59964}}, {"type": "Feature", "geometry": {"type": "Point", "coordinates": [-0.4622, 46.325]}, "properties": {"name": "Niort", "pop": 59854}}, {"type": "Feature", "geometry": {"type": "Point", "coordinates": [6.7356, 43.4331]}, "properties": {"name": "Fréjus", "pop": 59719}}, {"type": "Feature", "geometry": {"type": "Point", "coordinates": [2.2675, 48.8872]}, "properties": {"name": "Neuilly-sur-Seine", "pop": 59538}}, {"type": "Feature", "geometry": {"type": "Point", "coordinates": [2.3781, 48.9972]}, "properties": {"name": "Sarcelles", "pop": 59173}}, {"type": "Feature", "geometry": {"type": "Point", "coordinates": [2.2619, 48.8008]}, "properties": {"name": "Clamart", "pop": 58576}}, {"type": "Feature", "geometry": {"type": "Point", "coordinates": [-3.3664, 47.7458]}, "properties": {"name": "Lorient", "pop": 58329}}, {"type": "Feature", "geometry": {"type": "Point", "coordinates": [2.385, 48.871]}, "properties": {"name": "Belleville", "pop": 57699}}, {"type": "Feature", "geometry": {"type": "Point", "coordinates": [3.0036, 43.1847]}, "properties": {"name": "Narbonne", "pop": 57587}}, {"type": "Feature", "geometry": {"type": "Point", "coordinates": [2.4386, 48.9097]}, "properties": {"name": "Bobigny", "pop": 56927}}, {"type": "Feature", "geometry": {"type": "Point", "coordinates": [2.8878, 48.9594]}, "properties": {"name": "Meaux", "pop": 56905}}, {"type": "Feature", "geometry": {"type": "Point", "coordinates": [2.4378, 48.8058]}, "properties": {"name": "Maisons-Alfort", "pop": 56799}}, {"type": "Feature", "geometry": {"type": "Point", "coordinates": [6.1286, 43.1189]}, "properties": {"name": "Hyères", "pop": 55858}}, {"type": "Feature", "geometry": {"type": "Point", "coordinates": [-2.7617, 47.655]}, "properties": {"name": "Vannes", "pop": 55790}}, {"type": "Feature", "geometry": {"type": "Point", "coordinates": [2.0875, 49.4342]}, "properties": {"name": "Beauvais", "pop": 55550}}, {"type": "Feature", "geometry": {"type": "Point", "coordinates": [-1.4278, 46.6697]}, "properties": {"name": "La Roche-sur-Yon", "pop": 54849}}, {"type": "Feature", "geometry": {"type": "Point", "coordinates": [2.5889, 48.8786]}, "properties": {"name": "Chelles", "pop": 54620}}, {"type": "Feature", "geometry": {"type": "Point", "coordinates": [2.4747, 48.6103]}, "properties": {"name": "Corbeil-Essonnes", "pop": 54471}}, {"type": "Feature", "geometry": {"type": "Point", "coordinates": [-0.8797, 47.0589]}, "properties": {"name": "Cholet", "pop": 54404}}, {"type": "Feature", "geometry": {"type": "Point", "coordinates": [-1.4764, 43.4925]}, "properties": {"name": "Bayonne", "pop": 54306}}, {"type": "Feature", "geometry": {"type": "Point", "coordinates": [2.4772, 48.8517]}, "properties": {"name": "Fontenay-sous-Bois", "pop": 53757}}, {"type": "Feature", "geometry": {"type": "Point", "coordinates": [2.4294, 48.6239]}, "properties": {"name": "Évry", "pop": 53641}}, {"type": "Feature", "geometry": {"type": "Point", "coordinates": [2.3331, 48.9069]}, "properties": {"name": "Saint-Ouen-sur-Seine", "pop": 53615}}, {"type": "Feature", "geometry": {"type": "Point", "coordinates": [7.1483, 43.6636]}, "properties": {"name": "Cagnes-sur-Mer", "pop": 53354}}, {"type": "Feature", "geometry": {"type": "Point", "coordinates": [4.925, 45.7869]}, "properties": {"name": "Vaulx-en-Velin", "pop": 53069}}, {"type": "Feature", "geometry": {"type": "Point", "coordinates": [2.3083, 48.9547]}, "properties": {"name": "Épinay-sur-Seine", "pop": 52833}}, {"type": "Feature", "geometry": {"type": "Point", "coordinates": [3.2856, 49.8478]}, "properties": {"name": "Saint-Quentin", "pop": 52813}}, {"type": "Feature", "geometry": {"type": "Point", "coordinates": [2.17, 48.9453]}, "properties": {"name": "Sartrouville", "pop": 52763}}, {"type": "Feature", "geometry": {"type": "Point", "coordinates": [2.5228, 48.9414]}, "properties": {"name": "Sevran", "pop": 52535}}, {"type": "Feature", "geometry": {"type": "Point", "coordinates": [4.6286, 43.6769]}, "properties": {"name": "Arles", "pop": 51811}}, {"type": "Feature", "geometry": {"type": "Point", "coordinates": [2.2764, 48.7306]}, "properties": {"name": "Massy", "pop": 51729}}, {"type": "Feature", "geometry": {"type": "Point", "coordinates": [2.1458, 43.9281]}, "properties": {"name": "Albi", "pop": 51290}}, {"type": "Feature", "geometry": {"type": "Point", "coordinates": [2.2944, 48.9256]}, "properties": {"name": "Gennevilliers", "pop": 50979}}, {"type": "Feature", "geometry": {"type": "Point", "coordinates": [-1.6511, 47.2114]}, "properties": {"name": "Saint-Herblain", "pop": 50973}}, {"type": "Feature", "geometry": {"type": "Point", "coordinates": [6.9253, 43.6581]}, "properties": {"name": "Grasse", "pop": 50970}}, {"type": "Feature", "geometry": {"type": "Point", "coordinates": [2.4836, 48.9028]}, "properties": {"name": "Bondy", "pop": 50595}}, {"type": "Feature", "geometry": {"type": "Point", "coordinates": [-1.7847, 46.4964]}, "properties": {"name": "Les Sables-d'Olonne", "pop": 49603}}, {"type": "Feature", "geometry": {"type": "Point", "coordinates": [-0.77, 48.0728]}, "properties": {"name": "Laval", "pop": 49400}}, {"type": "Feature", "geometry": {"type": "Point", "coordinates": [1.1525, 49.0233]}, "properties": {"name": "Évreux", "pop": 49360}}, {"type": "Feature", "geometry": {"type": "Point", "coordinates": [4.9439, 45.6964]}, "properties": {"name": "Saint-Priest", "pop": 49229}}, {"type": "Feature", "geometry": {"type": "Point", "coordinates": [2.2269, 48.8711]}, "properties": {"name": "Suresnes", "pop": 48956}}, {"type": "Feature", "geometry": {"type": "Point", "coordinates": [5.0475, 43.4053]}, "properties": {"name": "Martigues", "pop": 48298}}, {"type": "Feature", "geometry": {"type": "Point", "coordinates": [2.4392, 48.8478]}, "properties": {"name": "Vincennes", "pop": 48193}}, {"type": "Feature", "geometry": {"type": "Point", "coordinates": [5.5708, 43.2908]}, "properties": {"name": "Aubagne", "pop": 47529}}, {"type": "Feature", "geometry": {"type": "Point", "coordinates": [-2.0261, 48.6494]}, "properties": {"name": "Saint-Malo", "pop": 47439}}, {"type": "Feature", "geometry": {"type": "Point", "coordinates": [2.5353, 48.9183]}, "properties": {"name": "Livry-Gargan", "pop": 47228}}, {"type": "Feature", "geometry": {"type": "Point", "coordinates": [1.3272, 47.5931]}, "properties": {"name": "Blois", "pop": 47219}}, {"type": "Feature", "geometry": {"type": "Point", "coordinates": [2.4853, 48.8731]}, "properties": {"name": "Rosny-sous-Bois", "pop": 47180}}, {"type": "Feature", "geometry": {"type": "Point", "coordinates": [2.3958, 48.9314]}, "properties": {"name": "La Courneuve", "pop": 47167}}, {"type": "Feature", "geometry": {"type": "Point", "coordinates": [1.5331, 45.1589]}, "properties": {"name": "Brive-la-Gaillarde", "pop": 47095}}, {"type": "Feature", "geometry": {"type": "Point", "coordinates": [9.4494, 42.7]}, "properties": {"name": "Bastia", "pop": 46867}}, {"type": "Feature", "geometry": {"type": "Point", "coordinates": [-0.5883, 44.8086]}, "properties": {"name": "Talence", "pop": 46338}}, {"type": "Feature", "geometry": {"type": "Point", "coordinates": [2.2403, 48.8075]}, "properties": {"name": "Meudon", "pop": 46334}}, {"type": "Feature", "geometry": {"type": "Point", "coordinates": [2.3211, 48.8164]}, "properties": {"name": "Montrouge", "pop": 46324}}, {"type": "Feature", "geometry": {"type": "Point", "coordinates": [4.0808, 44.1272]}, "properties": {"name": "Alès", "pop": 46125}}, {"type": "Feature", "geometry": {"type": "Point", "coordinates": [2.3514, 43.2158]}, "properties": {"name": "Carcassonne", "pop": 46080}}, {"type": "Feature", "geometry": {"type": "Point", "coordinates": [2.6592, 48.5397]}, "properties": {"name": "Melun", "pop": 45995}}, {"type": "Feature", "geometry": {"type": "Point", "coordinates": [2.4078, 48.7664]}, "properties": {"name": "Choisy-le-Roi", "pop": 45946}}, {"type": "Feature", "geometry": {"type": "Point", "coordinates": [2.0906, 48.8964]}, "properties": {"name": "Saint-Germain-en-Laye", "pop": 45931}}, {"type": "Feature", "geometry": {"type": "Point", "coordinates": [6.8628, 47.6375]}, "properties": {"name": "Belfort", "pop": 45912}}, {"type": "Feature", "geometry": {"type": "Point", "coordinates": [4.7194, 49.76]}, "properties": {"name": "Charleville-Mézières", "pop": 45560}}, {"type": "Feature", "geometry": {"type": "Point", "coordinates": [2.4242, 48.7975]}, "properties": {"name": "Alfortville", "pop": 45531}}, {"type": "Feature", "geometry": {"type": "Point", "coordinates": [2.4536, 48.8908]}, "properties": {"name": "Noisy-le-Sec", "pop": 45510}}, {"type": "Feature", "geometry": {"type": "Point", "coordinates": [3.6967, 43.4044]}, "properties": {"name": "Sète", "pop": 45337}}, {"type": "Feature", "geometry": {"type": "Point", "coordinates": [4.8539, 46.7811]}, "properties": {"name": "Chalon-sur-Saône", "pop": 45102}}, {"type": "Feature", "geometry": {"type": "Point", "coordinates": [2.3125, 48.7978]}, "properties": {"name": "Bagneux", "pop": 44572}}, {"type": "Feature", "geometry": {"type": "Point", "coordinates": [0.0744, 43.2328]}, "properties": {"name": "Tarbes", "pop": 44399}}, {"type": "Feature", "geometry": {"type": "Point", "coordinates": [-2.7603, 48.5136]}, "properties": {"name": "Saint-Brieuc", "pop": 44364}}, {"type": "Feature", "geometry": {"type": "Point", "coordinates": [4.9889, 43.5142]}, "properties": {"name": "Istres", "pop": 44292}}, {"type": "Feature", "geometry": {"type": "Point", "coordinates": [5.0972, 43.6406]}, "properties": {"name": "Salon-de-Provence", "pop": 44194}}, {"type": "Feature", "geometry": {"type": "Point", "coordinates": [2.2381, 48.8842]}, "properties": {"name": "Puteaux", "pop": 44002}}, {"type": "Feature", "geometry": {"type": "Point", "coordinates": [4.8464, 45.7947]}, "properties": {"name": "Caluire-et-Cuire", "pop": 43597}}, {"type": "Feature", "geometry": {"type": "Point", "coordinates": [-1.5497, 47.1814]}, "properties": {"name": "Rezé", "pop": 43556}}, {"type": "Feature", "geometry": {"type": "Point", "coordinates": [1.7167, 48.9906]}, "properties": {"name": "Mantes-la-Jolie", "pop": 43526}}, {"type": "Feature", "geometry": {"type": "Point", "coordinates": [3.5233, 50.3581]}, "properties": {"name": "Valenciennes", "pop": 43468}}, {"type": "Feature", "geometry": {"type": "Point", "coordinates": [-1.5194, 43.4842]}, "properties": {"name": "Anglet", "pop": 43271}}, {"type": "Feature", "geometry": {"type": "Point", "coordinates": [2.4169, 48.8669]}, "properties": {"name": "Bagnolet", "pop": 43086}}, {"type": "Feature", "geometry": {"type": "Point", "coordinates": [4.9131, 45.7386]}, "properties": {"name": "Bron", "pop": 42982}}, {"type": "Feature", "geometry": {"type": "Point", "coordinates": [4.3644, 48.9567]}, "properties": {"name": "Châlons-en-Champagne", "pop": 42971}}, {"type": "Feature", "geometry": {"type": "Point", "coordinates": [1.6903, 46.8097]}, "properties": {"name": "Châteauroux", "pop": 42963}}, {"type": "Feature", "geometry": {"type": "Point", "coordinates": [2.78, 50.2892]}, "properties": {"name": "Arras", "pop": 42875}}, {"type": "Feature", "geometry": {"type": "Point", "coordinates": [6.1683, 49.3581]}, "properties": {"name": "Thionville", "pop": 42658}}, {"type": "Feature", "geometry": {"type": "Point", "coordinates": [-0.5669, 44.7794]}, "properties": {"name": "Villenave-d'Ornon", "pop": 42545}}, {"type": "Feature", "geometry": {"type": "Point", "coordinates": [2.24, 43.6058]}, "properties": {"name": "Castres", "pop": 42505}}, {"type": "Feature", "geometry": {"type": "Point", "coordinates": [5.2281, 46.2047]}, "properties": {"name": "Bourg-en-Bresse", "pop": 42372}}, {"type": "Feature", "geometry": {"type": "Point", "coordinates": [2.5389, 48.8817]}, "properties": {"name": "Gagny", "pop": 42313}}, {"type": "Feature", "geometry": {"type": "Point", "coordinates": [7.0186, 43.5761]}, "properties": {"name": "Le Cannet", "pop": 41938}}, {"type": "Feature", "geometry": {"type": "Point", "coordinates": [0.1594, 45.6494]}, "properties": {"name": "Angoulême", "pop": 41908}}, {"type": "Feature", "geometry": {"type": "Point", "coordinates": [2.4, 48.9719]}, "properties": {"name": "Garges-lès-Gonesse", "pop": 41791}}, {"type": "Feature", "geometry": {"type": "Point", "coordinates": [2.5303, 48.9606]}, "properties": {"name": "Villepinte", "pop": 41470}}, {"type": "Feature", "geometry": {"type": "Point", "coordinates": [2.3822, 48.9553]}, "properties": {"name": "Stains", "pop": 41388}}, {"type": "Feature", "geometry": {"type": "Point", "coordinates": [6.0778, 44.5586]}, "properties": {"name": "Gap", "pop": 41293}}, {"type": "Feature", "geometry": {"type": "Point", "coordinates": [2.0447, 48.9289]}, "properties": {"name": "Poissy", "pop": 40983}}, {"type": "Feature", "geometry": {"type": "Point", "coordinates": [1.3358, 43.6128]}, "properties": {"name": "Colomiers", "pop": 40882}}, {"type": "Feature", "geometry": {"type": "Point", "coordinates": [3.2133, 50.7011]}, "properties": {"name": "Wattrelos", "pop": 40847}}, {"type": "Feature", "geometry": {"type": "Point", "coordinates": [6.4661, 43.5394]}, "properties": {"name": "Draguignan", "pop": 40826}}, {"type": "Feature", "geometry": {"type": "Point", "coordinates": [2.8222, 49.4142]}, "properties": {"name": "Compiègne", "pop": 40761}}, {"type": "Feature", "geometry": {"type": "Point", "coordinates": [4.7508, 44.5586]}, "properties": {"name": "Montélimar", "pop": 40595}}, {"type": "Feature", "geometry": {"type": "Point", "coordinates": [1.6139, 50.7256]}, "properties": {"name": "Boulogne-sur-Mer", "pop": 40539}}, {"type": "Feature", "geometry": {"type": "Point", "coordinates": [3.0792, 50.3708]}, "properties": {"name": "Douai", "pop": 40250}}, {"type": "Feature", "geometry": {"type": "Point", "coordinates": [3.0964, 50.6703]}, "properties": {"name": "Marcq-en-Barœul", "pop": 40184}}, {"type": "Feature", "geometry": {"type": "Point", "coordinates": [2.5311, 48.8578]}, "properties": {"name": "Neuilly-sur-Marne", "pop": 39800}}, {"type": "Feature", "geometry": {"type": "Point", "coordinates": [2.6053, 48.7983]}, "properties": {"name": "Pontault-Combault", "pop": 39096}}, {"type": "Feature", "geometry": {"type": "Point", "coordinates": [5.6081, 43.1761]}, "properties": {"name": "La Ciotat", "pop": 38477}}, {"type": "Feature", "geometry": {"type": "Point", "coordinates": [0.6617, 47.3506]}, "properties": {"name": "Joué-lès-Tours", "pop": 38423}}, {"type": "Feature", "geometry": {"type": "Point", "coordinates": [2.5764, 48.9561]}, "properties": {"name": "Tremblay-en-France", "pop": 38348}}, {"type": "Feature", "geometry": {"type": "Point", "coordinates": [1.4883, 48.4467]}, "properties": {"name": "Chartres", "pop": 38324}}, {"type": "Feature", "geometry": {"type": "Point", "coordinates": [4.8075, 45.7142]}, "properties": {"name": "Oullins", "pop": 38168}}, {"type": "Feature", "geometry": {"type": "Point", "coordinates": [4.8075, 45.7142]}, "properties": {"name": "Oullins-Pierre-Bénite", "pop": 38168}}, {"type": "Feature", "geometry": {"type": "Point", "coordinates": [6.4797, 46.3706]}, "properties": {"name": "Thonon-les-Bains", "pop": 37928}}, {"type": "Feature", "geometry": {"type": "Point", "coordinates": [2.2306, 48.9881]}, "properties": {"name": "Franconville", "pop": 37754}}, {"type": "Feature", "geometry": {"type": "Point", "coordinates": [5.7553, 45.1836]}, "properties": {"name": "Saint-Martin-d'Hères", "pop": 37695}}, {"type": "Feature", "geometry": {"type": "Point", "coordinates": [6.2356, 46.195]}, "properties": {"name": "Annemasse", "pop": 37628}}, {"type": "Feature", "geometry": {"type": "Point", "coordinates": [2.3525, 48.6739]}, "properties": {"name": "Savigny-sur-Orge", "pop": 37601}}, {"type": "Feature", "geometry": {"type": "Point", "coordinates": [5.7178, 45.1428]}, "properties": {"name": "Échirolles", "pop": 37491}}, {"type": "Feature", "geometry": {"type": "Point", "coordinates": [2.2497, 48.7183]}, "properties": {"name": "Palaiseau", "pop": 37471}}, {"type": "Feature", "geometry": {"type": "Point", "coordinates": [2.4361, 48.8836]}, "properties": {"name": "Romainville", "pop": 37152}}, {"type": "Feature", "geometry": {"type": "Point", "coordinates": [6.7678, 43.4247]}, "properties": {"name": "Saint-Raphaël", "pop": 37113}}, {"type": "Feature", "geometry": {"type": "Point", "coordinates": [5.8394, 43.0933]}, "properties": {"name": "Six-Fours-les-Plages", "pop": 37109}}, {"type": "Feature", "geometry": {"type": "Point", "coordinates": [-1.625, 49.6389]}, "properties": {"name": "Cherbourg-Octeville", "pop": 37055}}, {"type": "Feature", "geometry": {"type": "Point", "coordinates": [2.0944, 48.9972]}, "properties": {"name": "Conflans-Sainte-Honorine", "pop": 36958}}, {"type": "Feature", "geometry": {"type": "Point", "coordinates": [5.2497, 43.4481]}, "properties": {"name": "Vitrolles", "pop": 36758}}, {"type": "Feature", "geometry": {"type": "Point", "coordinates": [2.2886, 48.8011]}, "properties": {"name": "Châtillon", "pop": 36705}}, {"type": "Feature", "geometry": {"type": "Point", "coordinates": [5.0028, 45.7664]}, "properties": {"name": "Meyzieu", "pop": 36687}}, {"type": "Feature", "geometry": {"type": "Point", "coordinates": [2.3892, 48.7086]}, "properties": {"name": "Athis-Mons", "pop": 36613}}, {"type": "Feature", "geometry": {"type": "Point", "coordinates": [2.2169, 48.9256]}, "properties": {"name": "Bezons", "pop": 36434}}, {"type": "Feature", "geometry": {"type": "Point", "coordinates": [7.7878, 48.8167]}, "properties": {"name": "Haguenau", "pop": 36391}}, {"type": "Feature", "geometry": {"type": "Point", "coordinates": [2.4828, 49.2578]}, "properties": {"name": "Creil", "pop": 36301}}, {"type": "Feature", "geometry": {"type": "Point", "coordinates": [2.4497, 48.7325]}, "properties": {"name": "Villeneuve-Saint-Georges", "pop": 36221}}, {"type": "Feature", "geometry": {"type": "Point", "coordinates": [4.7197, 45.9894]}, "properties": {"name": "Villefranche-sur-Saône", "pop": 36172}}, {"type": "Feature", "geometry": {"type": "Point", "coordinates": [2.2781, 48.7653]}, "properties": {"name": "Châtenay-Malabry", "pop": 35825}}, {"type": "Feature", "geometry": {"type": "Point", "coordinates": [4.5147, 45.4764]}, "properties": {"name": "Saint-Chamond", "pop": 35646}}, {"type": "Feature", "geometry": {"type": "Point", "coordinates": [2.3322, 48.6378]}, "properties": {"name": "Sainte-Geneviève-des-Bois", "pop": 35438}}, {"type": "Feature", "geometry": {"type": "Point", "coordinates": [4.0681, 46.0361]}, "properties": {"name": "Roanne", "pop": 35409}}, {"type": "Feature", "geometry": {"type": "Point", "coordinates": [2.5036, 48.8422]}, "properties": {"name": "Le Perreux-sur-Marne", "pop": 35260}}, {"type": "Feature", "geometry": {"type": "Point", "coordinates": [4.8319, 46.3067]}, "properties": {"name": "Mâcon", "pop": 35177}}, {"type": "Feature", "geometry": {"type": "Point", "coordinates": [3.5669, 47.7975]}, "properties": {"name": "Auxerre", "pop": 35097}}, {"type": "Feature", "geometry": {"type": "Point", "coordinates": [7.7492, 48.6069]}, "properties": {"name": "Schiltigheim", "pop": 34708}}, {"type": "Feature", "geometry": {"type": "Point", "coordinates": [2.0017, 48.7767]}, "properties": {"name": "Trappes", "pop": 34689}}, {"type": "Feature", "geometry": {"type": "Point", "coordinates": [1.9083, 48.9931]}, "properties": {"name": "Les Mureaux", "pop": 34632}}, {"type": "Feature", "geometry": {"type": "Point", "coordinates": [2.1883, 48.9256]}, "properties": {"name": "Houilles", "pop": 33983}}, {"type": "Feature", "geometry": {"type": "Point", "coordinates": [5.2147, 43.4169]}, "properties": {"name": "Marignane", "pop": 33692}}, {"type": "Feature", "geometry": {"type": "Point", "coordinates": [2.3608, 48.9647]}, "properties": {"name": "Pierrefitte-sur-Seine", "pop": 33670}}, {"type": "Feature", "geometry": {"type": "Point", "coordinates": [5.0508, 45.0456]}, "properties": {"name": "Romans-sur-Isère", "pop": 33464}}, {"type": "Feature", "geometry": {"type": "Point", "coordinates": [2.5447, 48.8275]}, "properties": {"name": "Villiers-sur-Marne", "pop": 33162}}, {"type": "Feature", "geometry": {"type": "Point", "coordinates": [2.6025, 46.34]}, "properties": {"name": "Montluçon", "pop": 33147}}, {"type": "Feature", "geometry": {"type": "Point", "coordinates": [3.1567, 46.9925]}, "properties": {"name": "Nevers", "pop": 33085}}, {"type": "Feature", "geometry": {"type": "Point", "coordinates": [2.8325, 50.4314]}, "properties": {"name": "Lens", "pop": 32920}}, {"type": "Feature", "geometry": {"type": "Point", "coordinates": [2.3914, 48.7644]}, "properties": {"name": "Thiais", "pop": 32918}}, {"type": "Feature", "geometry": {"type": "Point", "coordinates": [-0.7175, 44.8956]}, "properties": {"name": "Saint-Médard-en-Jalles", "pop": 32910}}, {"type": "Feature", "geometry": {"type": "Point", "coordinates": [0.6186, 44.2031]}, "properties": {"name": "Agen", "pop": 32801}}, {"type": "Feature", "geometry": {"type": "Point", "coordinates": [2.0325, 48.7706]}, "properties": {"name": "Montigny-le-Bretonneux", "pop": 32465}}, {"type": "Feature", "geometry": {"type": "Point", "coordinates": [2.4825, 48.8367]}, "properties": {"name": "Nogent-sur-Marne", "pop": 32455}}, {"type": "Feature", "geometry": {"type": "Point", "coordinates": [5.915, 45.6886]}, "properties": {"name": "Aix-les-Bains", "pop": 32406}}, {"type": "Feature", "geometry": {"type": "Point", "coordinates": [6.4517, 48.1736]}, "properties": {"name": "Épinal", "pop": 32251}}, {"type": "Feature", "geometry": {"type": "Point", "coordinates": [7.19, 43.6733]}, "properties": {"name": "Saint-Laurent-du-Var", "pop": 32172}}, {"type": "Feature", "geometry": {"type": "Point", "coordinates": [2.1008, 49.0508]}, "properties": {"name": "Pontoise", "pop": 31970}}, {"type": "Feature", "geometry": {"type": "Point", "coordinates": [-0.5489, 44.8078]}, "properties": {"name": "Bègles", "pop": 31831}}, {"type": "Feature", "geometry": {"type": "Point", "coordinates": [1.9464, 48.8178]}, "properties": {"name": "Plaisir", "pop": 31811}}, {"type": "Feature", "geometry": {"type": "Point", "coordinates": [2.1656, 48.9903]}, "properties": {"name": "Herblay-sur-Seine", "pop": 31779}}, {"type": "Feature", "geometry": {"type": "Point", "coordinates": [4.8747, 45.5256]}, "properties": {"name": "Vienne", "pop": 31778}}, {"type": "Feature", "geometry": {"type": "Point", "coordinates": [5.0481, 44.055]}, "properties": {"name": "Carpentras", "pop": 31619}}, {"type": "Feature", "geometry": {"type": "Point", "coordinates": [-0.5006, 43.8903]}, "properties": {"name": "Mont-de-Marsan", "pop": 31592}}, {"type": "Feature", "geometry": {"type": "Point", "coordinates": [1.3656, 48.7364]}, "properties": {"name": "Dreux", "pop": 31543}}, {"type": "Feature", "geometry": {"type": "Point", "coordinates": [2.4172, 48.7003]}, "properties": {"name": "Vigneux-sur-Seine", "pop": 31466}}, {"type": "Feature", "geometry": {"type": "Point", "coordinates": [4.8975, 45.8206]}, "properties": {"name": "Rillieux-la-Pape", "pop": 31389}}, {"type": "Feature", "geometry": {"type": "Point", "coordinates": [2.4736, 49.0317]}, "properties": {"name": "Goussainville", "pop": 31301}}, {"type": "Feature", "geometry": {"type": "Point", "coordinates": [2.4131, 48.6511]}, "properties": {"name": "Ris-Orangis", "pop": 31189}}, {"type": "Feature", "geometry": {"type": "Point", "coordinates": [2.3372, 48.7792]}, "properties": {"name": "L'Haÿ-les-Roses", "pop": 31188}}, {"type": "Feature", "geometry": {"type": "Point", "coordinates": [2.5806, 48.5958]}, "properties": {"name": "Savigny-le-Temple", "pop": 31148}}, {"type": "Feature", "geometry": {"type": "Point", "coordinates": [3.2347, 50.1758]}, "properties": {"name": "Cambrai", "pop": 31134}}, {"type": "Feature", "geometry": {"type": "Point", "coordinates": [2.3319, 48.7919]}, "properties": {"name": "Cachan", "pop": 31103}}, {"type": "Feature", "geometry": {"type": "Point", "coordinates": [0.5453, 46.8169]}, "properties": {"name": "Châtellerault", "pop": 31003}}, {"type": "Feature", "geometry": {"type": "Point", "coordinates": [2.3758, 48.6694]}, "properties": {"name": "Viry-Châtillon", "pop": 30838}}, {"type": "Feature", "geometry": {"type": "Point", "coordinates": [2.132, 48.8279]}, "properties": {"name": "Le Chesnay-Rocquencourt", "pop": 30689}}, {"type": "Feature", "geometry": {"type": "Point", "coordinates": [7.4997, 43.7747]}, "properties": {"name": "Menton", "pop": 30604}}, {"type": "Feature", "geometry": {"type": "Point", "coordinates": [2.1569, 48.8906]}, "properties": {"name": "Chatou", "pop": 30598}}, {"type": "Feature", "geometry": {"type": "Point", "coordinates": [2.2992, 48.8172]}, "properties": {"name": "Malakoff", "pop": 30557}}, {"type": "Feature", "geometry": {"type": "Point", "coordinates": [2.38, 48.89]}, "properties": {"name": "La Villette", "pop": 30287}}, {"type": "Feature", "geometry": {"type": "Point", "coordinates": [2.2436, 48.905]}, "properties": {"name": "La Garenne-Colombes", "pop": 30197}}, {"type": "Feature", "geometry": {"type": "Point", "coordinates": [1.3436, 43.5844]}, "properties": {"name": "Tournefeuille", "pop": 30168}}, {"type": "Feature", "geometry": {"type": "Point", "coordinates": [5.2792, 45.5908]}, "properties": {"name": "Bourgoin-Jallieu", "pop": 30151}}, {"type": "Feature", "geometry": {"type": "Point", "coordinates": [2.4094, 48.6861]}, "properties": {"name": "Draveil", "pop": 30098}}, {"type": "Feature", "geometry": {"type": "Point", "coordinates": [2.7778, 50.4219]}, "properties": {"name": "Liévin", "pop": 30063}}, {"type": "Feature", "geometry": {"type": "Point", "coordinates": [2.3903, 49.0089]}, "properties": {"name": "Villiers-le-Bel", "pop": 30053}}, {"type": "Feature", "geometry": {"type": "Point", "coordinates": [6.1675, 48.6561]}, "properties": {"name": "Vandœuvre-lès-Nancy", "pop": 29942}}, {"type": "Feature", "geometry": {"type": "Point", "coordinates": [3.4753, 43.31]}, "properties": {"name": "Agde", "pop": 29939}}, {"type": "Feature", "geometry": {"type": "Point", "coordinates": [4.9589, 45.7686]}, "properties": {"name": "Décines-Charpieu", "pop": 29877}}, {"type": "Feature", "geometry": {"type": "Point", "coordinates": [2.2153, 48.8464]}, "properties": {"name": "Saint-Cloud", "pop": 29855}}, {"type": "Feature", "geometry": {"type": "Point", "coordinates": [2.5111, 48.8903]}, "properties": {"name": "Villemomble", "pop": 29795}}, {"type": "Feature", "geometry": {"type": "Point", "coordinates": [2.0731, 48.7706]}, "properties": {"name": "Guyancourt", "pop": 29778}}, {"type": "Feature", "geometry": {"type": "Point", "coordinates": [4.8089, 44.1375]}, "properties": {"name": "Orange", "pop": 29706}}, {"type": "Feature", "geometry": {"type": "Point", "coordinates": [2.3236, 48.7589]}, "properties": {"name": "Fresnes", "pop": 29528}}, {"type": "Feature", "geometry": {"type": "Point", "coordinates": [1.1042, 49.3778]}, "properties": {"name": "Saint-Étienne-du-Rouvray", "pop": 29518}}, {"type": "Feature", "geometry": {"type": "Point", "coordinates": [2.2594, 48.9914]}, "properties": {"name": "Ermont", "pop": 29489}}, {"type": "Feature", "geometry": {"type": "Point", "coordinates": [2.5472, 48.9092]}, "properties": {"name": "Clichy-sous-Bois", "pop": 29354}}, {"type": "Feature", "geometry": {"type": "Point", "coordinates": [7.0533, 43.5797]}, "properties": {"name": "Vallauris", "pop": 29259}}, {"type": "Feature", "geometry": {"type": "Point", "coordinates": [0.7181, 45.1842]}, "properties": {"name": "Périgueux", "pop": 29055}}, {"type": "Feature", "geometry": {"type": "Point", "coordinates": [1.0892, 49.4086]}, "properties": {"name": "Sotteville-lès-Rouen", "pop": 29003}}, {"type": "Feature", "geometry": {"type": "Point", "coordinates": [2.2683, 48.9175]}, "properties": {"name": "Bois-Colombes", "pop": 28909}}, {"type": "Feature", "geometry": {"type": "Point", "coordinates": [2.2636, 48.7833]}, "properties": {"name": "Le Plessis-Robinson", "pop": 28848}}, {"type": "Feature", "geometry": {"type": "Point", "coordinates": [2.4119, 48.8214]}, "properties": {"name": "Charenton-le-Pont", "pop": 28830}}, {"type": "Feature", "geometry": {"type": "Point", "coordinates": [3.9725, 50.2769]}, "properties": {"name": "Maubeuge", "pop": 28767}}, {"type": "Feature", "geometry": {"type": "Point", "coordinates": [2.5647, 48.8983]}, "properties": {"name": "Montfermeil", "pop": 28703}}, {"type": "Feature", "geometry": {"type": "Point", "coordinates": [2.1303, 48.8203]}, "properties": {"name": "Le Chesnay", "pop": 28640}}, {"type": "Feature", "geometry": {"type": "Point", "coordinates": [2.2889, 48.82]}, "properties": {"name": "Vanves", "pop": 28622}}, {"type": "Feature", "geometry": {"type": "Point", "coordinates": [-1.5025, 47.2072]}, "properties": {"name": "Saint-Sébastien-sur-Loire", "pop": 28596}}, {"type": "Feature", "geometry": {"type": "Point", "coordinates": [-1.6236, 47.2708]}, "properties": {"name": "Orvault", "pop": 28534}}, {"type": "Feature", "geometry": {"type": "Point", "coordinates": [1.075, 49.925]}, "properties": {"name": "Dieppe", "pop": 28496}}, {"type": "Feature", "geometry": {"type": "Point", "coordinates": [3.3225, 49.3811]}, "properties": {"name": "Soissons", "pop": 28046}}, {"type": "Feature", "geometry": {"type": "Point", "coordinates": [2.9876, 50.6455]}, "properties": {"name": "Lomme", "pop": 28006}}, {"type": "Feature", "geometry": {"type": "Point", "coordinates": [2.4908, 48.7161]}, "properties": {"name": "Yerres", "pop": 27906}}, {"type": "Feature", "geometry": {"type": "Point", "coordinates": [7.7144, 48.5247]}, "properties": {"name": "Illkirch-Graffenstaden", "pop": 27872}}, {"type": "Feature", "geometry": {"type": "Point", "coordinates": [2.5228, 48.7697]}, "properties": {"name": "Sucy-en-Brie", "pop": 27764}}, {"type": "Feature", "geometry": {"type": "Point", "coordinates": [1.83, 48.6436]}, "properties": {"name": "Rambouillet", "pop": 27724}}, {"type": "Feature", "geometry": {"type": "Point", "coordinates": [2.4486, 48.9867]}, "properties": {"name": "Gonesse", "pop": 27707}}, {"type": "Feature", "geometry": {"type": "Point", "coordinates": [1.39, 43.6356]}, "properties": {"name": "Blagnac", "pop": 27604}}, {"type": "Feature", "geometry": {"type": "Point", "coordinates": [2.2267, 49.0258]}, "properties": {"name": "Taverny", "pop": 27593}}, {"type": "Feature", "geometry": {"type": "Point", "coordinates": [-1.1482, 44.631]}, "properties": {"name": "La Teste-de-Buch", "pop": 27566}}, {"type": "Feature", "geometry": {"type": "Point", "coordinates": [2.6978, 48.8417]}, "properties": {"name": "Bussy-Saint-Georges", "pop": 27498}}, {"type": "Feature", "geometry": {"type": "Point", "coordinates": [2.6019, 48.8528]}, "properties": {"name": "Champs-sur-Marne", "pop": 27451}}, {"type": "Feature", "geometry": {"type": "Point", "coordinates": [2.4883, 48.7464]}, "properties": {"name": "Limeil-Brévannes", "pop": 27406}}, {"type": "Feature", "geometry": {"type": "Point", "coordinates": [2.2006, 48.9731]}, "properties": {"name": "Cormeilles-en-Parisis", "pop": 27292}}, {"type": "Feature", "geometry": {"type": "Point", "coordinates": [0.4875, 44.8536]}, "properties": {"name": "Bergerac", "pop": 27110}}, {"type": "Feature", "geometry": {"type": "Point", "coordinates": [3.2833, 48.1972]}, "properties": {"name": "Sens", "pop": 27106}}, {"type": "Feature", "geometry": {"type": "Point", "coordinates": [3.0242, 50.6494]}, "properties": {"name": "Lambersart", "pop": 27090}}, {"type": "Feature", "geometry": {"type": "Point", "coordinates": [2.8803, 50.6872]}, "properties": {"name": "Armentières", "pop": 26998}}, {"type": "Feature", "geometry": {"type": "Point", "coordinates": [-0.6169, 44.7714]}, "properties": {"name": "Gradignan", "pop": 26952}}, {"type": "Feature", "geometry": {"type": "Point", "coordinates": [2.6064, 48.9428]}, "properties": {"name": "Villeparisis", "pop": 26946}}, {"type": "Feature", "geometry": {"type": "Point", "coordinates": [2.2569, 48.9717]}, "properties": {"name": "Sannois", "pop": 26924}}, {"type": "Feature", "geometry": {"type": "Point", "coordinates": [2.1622, 48.435]}, "properties": {"name": "Étampes", "pop": 26857}}, {"type": "Feature", "geometry": {"type": "Point", "coordinates": [2.3881, 48.6567]}, "properties": {"name": "Grigny", "pop": 26842}}, {"type": "Feature", "geometry": {"type": "Point", "coordinates": [-0.5328, 44.8569]}, "properties": {"name": "Cenon", "pop": 26834}}, {"type": "Feature", "geometry": {"type": "Point", "coordinates": [2.3078, 48.6094]}, "properties": {"name": "Brétigny-sur-Orge", "pop": 26658}}, {"type": "Feature", "geometry": {"type": "Point", "coordinates": [4.1353, 43.6769]}, "properties": {"name": "Lunel", "pop": 26623}}, {"type": "Feature", "geometry": {"type": "Point", "coordinates": [6.0106, 43.1247]}, "properties": {"name": "La Garde", "pop": 26476}}, {"type": "Feature", "geometry": {"type": "Point", "coordinates": [1.9494, 48.7683]}, "properties": {"name": "Élancourt", "pop": 26365}}, {"type": "Feature", "geometry": {"type": "Point", "coordinates": [-0.0781, 47.2592]}, "properties": {"name": "Saumur", "pop": 26241}}, {"type": "Feature", "geometry": {"type": "Point", "coordinates": [-1.4714, 47.1681]}, "properties": {"name": "Vertou", "pop": 26227}}, {"type": "Feature", "geometry": {"type": "Point", "coordinates": [2.2958, 48.8369]}, "properties": {"name": "Vaugirard", "pop": 26223}}, {"type": "Feature", "geometry": {"type": "Point", "coordinates": [2.4397, 44.9253]}, "properties": {"name": "Aurillac", "pop": 26214}}, {"type": "Feature", "geometry": {"type": "Point", "coordinates": [2.2797, 48.9914]}, "properties": {"name": "Eaubonne", "pop": 26211}}, {"type": "Feature", "geometry": {"type": "Point", "coordinates": [-1.5572, 43.4806]}, "properties": {"name": "Biarritz", "pop": 26206}}, {"type": "Feature", "geometry": {"type": "Point", "coordinates": [5.0014, 43.5814]}, "properties": {"name": "Miramas", "pop": 26203}}, {"type": "Feature", "geometry": {"type": "Point", "coordinates": [1.3258, 43.4603]}, "properties": {"name": "Muret", "pop": 26079}}, {"type": "Feature", "geometry": {"type": "Point", "coordinates": [3.9014, 43.6361]}, "properties": {"name": "Castelnau-le-Lez", "pop": 26058}}, {"type": "Feature", "geometry": {"type": "Point", "coordinates": [2.3278, 48.9372]}, "properties": {"name": "Villeneuve-la-Garenne", "pop": 26021}}, {"type": "Feature", "geometry": {"type": "Point", "coordinates": [2.1675, 48.6822]}, "properties": {"name": "Les Ulis", "pop": 25886}}, {"type": "Feature", "geometry": {"type": "Point", "coordinates": [2.5106, 48.9058]}, "properties": {"name": "Les Pavillons-sous-Bois", "pop": 25804}}, {"type": "Feature", "geometry": {"type": "Point", "coordinates": [-0.9911, 47.1231]}, "properties": {"name": "Sèvremoine", "pop": 25797}}, {"type": "Feature", "geometry": {"type": "Point", "coordinates": [1.0522, 49.4064]}, "properties": {"name": "Le Grand-Quevilly", "pop": 25789}}, {"type": "Feature", "geometry": {"type": "Point", "coordinates": [-0.5231, 44.8801]}, "properties": {"name": "Lormont", "pop": 25769}}, {"type": "Feature", "geometry": {"type": "Point", "coordinates": [2.95, 50.4211]}, "properties": {"name": "Hénin-Beaumont", "pop": 25688}}, {"type": "Feature", "geometry": {"type": "Point", "coordinates": [2.5033, 48.6981]}, "properties": {"name": "Brunoy", "pop": 25643}}, {"type": "Feature", "geometry": {"type": "Point", "coordinates": [5.0372, 43.8367]}, "properties": {"name": "Cavaillon", "pop": 25636}}, {"type": "Feature", "geometry": {"type": "Point", "coordinates": [2.1103, 49.0442]}, "properties": {"name": "Saint-Ouen-l'Aumône", "pop": 25578}}, {"type": "Feature", "geometry": {"type": "Point", "coordinates": [0.0919, 48.4297]}, "properties": {"name": "Alençon", "pop": 25490}}, {"type": "Feature", "geometry": {"type": "Point", "coordinates": [-1.6, 49.6333]}, "properties": {"name": "Cherbourg", "pop": 25370}}, {"type": "Feature", "geometry": {"type": "Point", "coordinates": [-0.6344, 45.7453]}, "properties": {"name": "Saintes", "pop": 25363}}, {"type": "Feature", "geometry": {"type": "Point", "coordinates": [1.485, 49.0917]}, "properties": {"name": "Vernon", "pop": 25290}}, {"type": "Feature", "geometry": {"type": "Point", "coordinates": [2.6393, 50.5309]}, "properties": {"name": "Béthune", "pop": 25224}}, {"type": "Feature", "geometry": {"type": "Point", "coordinates": [3.4258, 46.1269]}, "properties": {"name": "Vichy", "pop": 25115}}, {"type": "Feature", "geometry": {"type": "Point", "coordinates": [-0.5986, 44.8647]}, "properties": {"name": "Le Bouscat", "pop": 25081}}, {"type": "Feature", "geometry": {"type": "Point", "coordinates": [2.0683, 47.2219]}, "properties": {"name": "Vierzon", "pop": 25068}}, {"type": "Feature", "geometry": {"type": "Point", "coordinates": [-0.2439, 44.9153]}, "properties": {"name": "Libourne", "pop": 25036}}, {"type": "Feature", "geometry": {"type": "Point", "coordinates": [-0.6514, 44.8844]}, "properties": {"name": "Eysines", "pop": 24825}}, {"type": "Feature", "geometry": {"type": "Point", "coordinates": [6.7983, 47.5097]}, "properties": {"name": "Montbéliard", "pop": 24672}}, {"type": "Feature", "geometry": {"type": "Point", "coordinates": [4.72, 49.7725]}, "properties": {"name": "Charleville", "pop": 24668}}, {"type": "Feature", "geometry": {"type": "Point", "coordinates": [2.3928, 48.7436]}, "properties": {"name": "Orly", "pop": 24658}}, {"type": "Feature", "geometry": {"type": "Point", "coordinates": [3.6206, 49.5644]}, "properties": {"name": "Laon", "pop": 24220}}, {"type": "Feature", "geometry": {"type": "Point", "coordinates": [3.7556, 43.4472]}, "properties": {"name": "Frontignan", "pop": 24136}}, {"type": "Feature", "geometry": {"type": "Point", "coordinates": [2.3581, 48.81]}, "properties": {"name": "Le Kremlin-Bicêtre", "pop": 24110}}, {"type": "Feature", "geometry": {"type": "Point", "coordinates": [-1.7239, 47.2147]}, "properties": {"name": "Couëron", "pop": 24103}}, {"type": "Feature", "geometry": {"type": "Point", "coordinates": [2.2856, 48.7892]}, "properties": {"name": "Fontenay-aux-Roses", "pop": 24070}}, {"type": "Feature", "geometry": {"type": "Point", "coordinates": [2.4553, 48.7075]}, "properties": {"name": "Montgeron", "pop": 24022}}, {"type": "Feature", "geometry": {"type": "Point", "coordinates": [-0.9936, 47.2019]}, "properties": {"name": "Beaupréau-en-Mauges", "pop": 23989}}, {"type": "Feature", "geometry": {"type": "Point", "coordinates": [2.5742, 44.35]}, "properties": {"name": "Rodez", "pop": 23981}}, {"type": "Feature", "geometry": {"type": "Point", "coordinates": [-0.9944, 47.2019]}, "properties": {"name": "Beaupréau", "pop": 23851}}, {"type": "Feature", "geometry": {"type": "Point", "coordinates": [2.4169, 48.88]}, "properties": {"name": "Les Lilas", "pop": 23843}}, {"type": "Feature", "geometry": {"type": "Point", "coordinates": [5.4897, 47.0922]}, "properties": {"name": "Dole", "pop": 23840}}, {"type": "Feature", "geometry": {"type": "Point", "coordinates": [5.9825, 43.1372]}, "properties": {"name": "La Valette-du-Var", "pop": 23719}}, {"type": "Feature", "geometry": {"type": "Point", "coordinates": [2.6344, 48.5153]}, "properties": {"name": "Dammarie-lès-Lys", "pop": 23559}}, {"type": "Feature", "geometry": {"type": "Point", "coordinates": [1.8997, 47.8631]}, "properties": {"name": "Olivet", "pop": 23507}}, {"type": "Feature", "geometry": {"type": "Point", "coordinates": [-0.3264, 49.2036]}, "properties": {"name": "Hérouville-Saint-Clair", "pop": 23470}}, {"type": "Feature", "geometry": {"type": "Point", "coordinates": [-0.9669, 45.9419]}, "properties": {"name": "Rochefort", "pop": 23460}}, {"type": "Feature", "geometry": {"type": "Point", "coordinates": [2.5631, 48.6619]}, "properties": {"name": "Combs-la-Ville", "pop": 23350}}, {"type": "Feature", "geometry": {"type": "Point", "coordinates": [-3.3389, 47.7633]}, "properties": {"name": "Lanester", "pop": 23263}}, {"type": "Feature", "geometry": {"type": "Point", "coordinates": [2.6514, 48.7911]}, "properties": {"name": "Roissy-en-Brie", "pop": 23229}}, {"type": "Feature", "geometry": {"type": "Point", "coordinates": [4.78, 45.7633]}, "properties": {"name": "Tassin-la-Demi-Lune", "pop": 23200}}, {"type": "Feature", "geometry": {"type": "Point", "coordinates": [1.9711, 47.9119]}, "properties": {"name": "Saint-Jean-de-Braye", "pop": 23147}}, {"type": "Feature", "geometry": {"type": "Point", "coordinates": [2.3286, 48.975]}, "properties": {"name": "Deuil-la-Barre", "pop": 23099}}, {"type": "Feature", "geometry": {"type": "Point", "coordinates": [2.145, 48.9461]}, "properties": {"name": "Maisons-Laffitte", "pop": 23093}}, {"type": "Feature", "geometry": {"type": "Point", "coordinates": [2.1883, 48.7833]}, "properties": {"name": "Vélizy-Villacoublay", "pop": 23011}}, {"type": "Feature", "geometry": {"type": "Point", "coordinates": [-1.8792, 46.8458]}, "properties": {"name": "Challans", "pop": 22943}}, {"type": "Feature", "geometry": {"type": "Point", "coordinates": [2.5394, 50.4858]}, "properties": {"name": "Bruay-en-Artois", "pop": 22893}}, {"type": "Feature", "geometry": {"type": "Point", "coordinates": [4.9489, 48.6378]}, "properties": {"name": "Saint-Dizier", "pop": 22858}}, {"type": "Feature", "geometry": {"type": "Point", "coordinates": [2.6508, 48.8503]}, "properties": {"name": "Torcy", "pop": 22810}}, {"type": "Feature", "geometry": {"type": "Point", "coordinates": [7.565, 47.5853]}, "properties": {"name": "Saint-Louis", "pop": 22805}}, {"type": "Feature", "geometry": {"type": "Point", "coordinates": [5.7831, 43.8333]}, "properties": {"name": "Manosque", "pop": 22718}}, {"type": "Feature", "geometry": {"type": "Point", "coordinates": [3.0136, 50.6122]}, "properties": {"name": "Loos", "pop": 22567}}, {"type": "Feature", "geometry": {"type": "Point", "coordinates": [2.1336, 48.7014]}, "properties": {"name": "Gif-sur-Yvette", "pop": 22544}}, {"type": "Feature", "geometry": {"type": "Point", "coordinates": [5.3094, 43.41]}, "properties": {"name": "Les Pennes-Mirabeau", "pop": 22537}}, {"type": "Feature", "geometry": {"type": "Point", "coordinates": [5.655, 46.2556]}, "properties": {"name": "Oyonnax", "pop": 22480}}, {"type": "Feature", "geometry": {"type": "Point", "coordinates": [2.195, 48.9939]}, "properties": {"name": "Montigny-lès-Cormeilles", "pop": 22457}}, {"type": "Feature", "geometry": {"type": "Point", "coordinates": [0.5886, 43.6453]}, "properties": {"name": "Auch", "pop": 22428}}, {"type": "Feature", "geometry": {"type": "Point", "coordinates": [1.8353, 50.1053]}, "properties": {"name": "Abbeville", "pop": 22395}}, {"type": "Feature", "geometry": {"type": "Point", "coordinates": [0.7042, 44.4069]}, "properties": {"name": "Villeneuve-sur-Lot", "pop": 22350}}, {"type": "Feature", "geometry": {"type": "Point", "coordinates": [1.7108, 48.9742]}, "properties": {"name": "Mantes-la-Ville", "pop": 22332}}, {"type": "Feature", "geometry": {"type": "Point", "coordinates": [2.2108, 48.8231]}, "properties": {"name": "Sèvres", "pop": 22303}}, {"type": "Feature", "geometry": {"type": "Point", "coordinates": [2.9481, 48.3831]}, "properties": {"name": "Montereau-Fault-Yonne", "pop": 22279}}, {"type": "Feature", "geometry": {"type": "Point", "coordinates": [2.0686, 48.9622]}, "properties": {"name": "Achères", "pop": 22241}}, {"type": "Feature", "geometry": {"type": "Point", "coordinates": [1.0528, 49.4306]}, "properties": {"name": "Le Petit-Quevilly", "pop": 22208}}, {"type": "Feature", "geometry": {"type": "Point", "coordinates": [2.3353, 48.8067]}, "properties": {"name": "Arcueil", "pop": 22200}}, {"type": "Feature", "geometry": {"type": "Point", "coordinates": [3.9592, 49.04]}, "properties": {"name": "Épernay", "pop": 22174}}, {"type": "Feature", "geometry": {"type": "Point", "coordinates": [-1.0678, 44.6353]}, "properties": {"name": "Gujan-Mestras", "pop": 22153}}, {"type": "Feature", "geometry": {"type": "Point", "coordinates": [-1.0514, 43.7069]}, "properties": {"name": "Dax", "pop": 22109}}, {"type": "Feature", "geometry": {"type": "Point", "coordinates": [3.0778, 44.0978]}, "properties": {"name": "Millau", "pop": 22044}}, {"type": "Feature", "geometry": {"type": "Point", "coordinates": [5.6847, 45.1931]}, "properties": {"name": "Fontaine", "pop": 22020}}, {"type": "Feature", "geometry": {"type": "Point", "coordinates": [-0.7286, 47.21]}, "properties": {"name": "Chemillé-en-Anjou", "pop": 21999}}, {"type": "Feature", "geometry": {"type": "Point", "coordinates": [2.2956, 48.6969]}, "properties": {"name": "Longjumeau", "pop": 21996}}, {"type": "Feature", "geometry": {"type": "Point", "coordinates": [2.5097, 48.8608]}, "properties": {"name": "Neuilly-Plaisance", "pop": 21941}}, {"type": "Feature", "geometry": {"type": "Point", "coordinates": [2.5383, 50.7244]}, "properties": {"name": "Hazebrouck", "pop": 21912}}, {"type": "Feature", "geometry": {"type": "Point", "coordinates": [2.4675, 49.2747]}, "properties": {"name": "Nogent-sur-Oise", "pop": 21907}}, {"type": "Feature", "geometry": {"type": "Point", "coordinates": [5.59, 45.3633]}, "properties": {"name": "Voiron", "pop": 21847}}, {"type": "Feature", "geometry": {"type": "Point", "coordinates": [1.9211, 47.9319]}, "properties": {"name": "Fleury-les-Aubrais", "pop": 21804}}, {"type": "Feature", "geometry": {"type": "Point", "coordinates": [3.0703, 50.6553]}, "properties": {"name": "La Madeleine", "pop": 21790}}, {"type": "Feature", "geometry": {"type": "Point", "coordinates": [2.3028, 48.6325]}, "properties": {"name": "Saint-Michel-sur-Orge", "pop": 21776}}, {"type": "Feature", "geometry": {"type": "Point", "coordinates": [2.3219, 48.9897]}, "properties": {"name": "Montmorency", "pop": 21763}}, {"type": "Feature", "geometry": {"type": "Point", "coordinates": [6.1533, 49.0997]}, "properties": {"name": "Montigny-lès-Metz", "pop": 21718}}, {"type": "Feature", "geometry": {"type": "Point", "coordinates": [4.8025, 45.7336]}, "properties": {"name": "Sainte-Foy-lès-Lyon", "pop": 21692}}, {"type": "Feature", "geometry": {"type": "Point", "coordinates": [2.3514, 48.6633]}, "properties": {"name": "Morsang-sur-Orge", "pop": 21667}}, {"type": "Feature", "geometry": {"type": "Point", "coordinates": [6.9375, 43.5456]}, "properties": {"name": "Mandelieu-la-Napoule", "pop": 21640}}, {"type": "Feature", "geometry": {"type": "Point", "coordinates": [5.4761, 43.4544]}, "properties": {"name": "Gardanne", "pop": 21597}}, {"type": "Feature", "geometry": {"type": "Point", "coordinates": [6.0961, 45.8889]}, "properties": {"name": "Seynod", "pop": 21595}}, {"type": "Feature", "geometry": {"type": "Point", "coordinates": [2.7067, 48.8781]}, "properties": {"name": "Lagny-sur-Marne", "pop": 21461}}, {"type": "Feature", "geometry": {"type": "Point", "coordinates": [5.4822, 43.3361]}, "properties": {"name": "Allauch", "pop": 21443}}, {"type": "Feature", "geometry": {"type": "Point", "coordinates": [2.5478, 50.4811]}, "properties": {"name": "Bruay-la-Buissière", "pop": 21424}}, {"type": "Feature", "geometry": {"type": "Point", "coordinates": [6.1419, 45.9192]}, "properties": {"name": "Annecy-le-Vieux", "pop": 21390}}, {"type": "Feature", "geometry": {"type": "Point", "coordinates": [4.7689, 45.5906]}, "properties": {"name": "Givors", "pop": 21379}}, {"type": "Feature", "geometry": {"type": "Point", "coordinates": [2.2819, 48.9711]}, "properties": {"name": "Saint-Gratien", "pop": 21336}}, {"type": "Feature", "geometry": {"type": "Point", "coordinates": [2.0625, 48.8003]}, "properties": {"name": "Saint-Cyr-l'École", "pop": 21268}}, {"type": "Feature", "geometry": {"type": "Point", "coordinates": [2.6792, 48.7692]}, "properties": {"name": "Ozoir-la-Ferrière", "pop": 21238}}, {"type": "Feature", "geometry": {"type": "Point", "coordinates": [4.7931, 45.6953]}, "properties": {"name": "Saint-Genis-Laval", "pop": 21212}}, {"type": "Feature", "geometry": {"type": "Point", "coordinates": [-1.3136, 46.9742]}, "properties": {"name": "Montaigu-Vendée", "pop": 21134}}, {"type": "Feature", "geometry": {"type": "Point", "coordinates": [2.5717, 48.8111]}, "properties": {"name": "Le Plessis-Trévise", "pop": 21112}}, {"type": "Feature", "geometry": {"type": "Point", "coordinates": [1.1092, 49.4614]}, "properties": {"name": "Bois-Guillaume-Bihorel", "pop": 21107}}, {"type": "Feature", "geometry": {"type": "Point", "coordinates": [3.1078, 50.6419]}, "properties": {"name": "Mons-en-Barœul", "pop": 21105}}, {"type": "Feature", "geometry": {"type": "Point", "coordinates": [1.2964, 43.5656]}, "properties": {"name": "Plaisance-du-Touch", "pop": 21079}}, {"type": "Feature", "geometry": {"type": "Point", "coordinates": [2.4178, 48.8414]}, "properties": {"name": "Saint-Mandé", "pop": 21071}}, {"type": "Feature", "geometry": {"type": "Point", "coordinates": [2.3158, 48.7781]}, "properties": {"name": "Bourg-la-Reine", "pop": 21019}}, {"type": "Feature", "geometry": {"type": "Point", "coordinates": [2.4108, 48.7344]}, "properties": {"name": "Villeneuve-le-Roi", "pop": 21000}}, {"type": "Feature", "geometry": {"type": "Point", "coordinates": [-1.4928, 47.2969]}, "properties": {"name": "Carquefou", "pop": 20921}}, {"type": "Feature", "geometry": {"type": "Point", "coordinates": [2.2906, 48.7786]}, "properties": {"name": "Sceaux", "pop": 20884}}, {"type": "Feature", "geometry": {"type": "Point", "coordinates": [-3.9189, 47.8753]}, "properties": {"name": "Concarneau", "pop": 20845}}, {"type": "Feature", "geometry": {"type": "Point", "coordinates": [5.1386, 48.1108]}, "properties": {"name": "Chaumont", "pop": 20827}}, {"type": "Feature", "geometry": {"type": "Point", "coordinates": [7.6831, 48.5575]}, "properties": {"name": "Lingolsheim", "pop": 20826}}, {"type": "Feature", "geometry": {"type": "Point", "coordinates": [2.0386, 48.9478]}, "properties": {"name": "Carrières-sous-Poissy", "pop": 20825}}, {"type": "Feature", "geometry": {"type": "Point", "coordinates": [2.3908, 51.0247]}, "properties": {"name": "Coudekerque-Branche", "pop": 20787}}, {"type": "Feature", "geometry": {"type": "Point", "coordinates": [3.13, 50.6686]}, "properties": {"name": "Wasquehal", "pop": 20726}}, {"type": "Feature", "geometry": {"type": "Point", "coordinates": [3.1247, 50.7828]}, "properties": {"name": "Halluin", "pop": 20715}}, {"type": "Feature", "geometry": {"type": "Point", "coordinates": [-1.5528, 47.2989]}, "properties": {"name": "La Chapelle-sur-Erdre", "pop": 20690}}, {"type": "Feature", "geometry": {"type": "Point", "coordinates": [3.395, 50.3286]}, "properties": {"name": "Denain", "pop": 20665}}, {"type": "Feature", "geometry": {"type": "Point", "coordinates": [1.3436, 43.5378]}, "properties": {"name": "Cugnaux", "pop": 20662}}, {"type": "Feature", "geometry": {"type": "Point", "coordinates": [1.9456, 48.7628]}, "properties": {"name": "Maurepas", "pop": 20629}}, {"type": "Feature", "geometry": {"type": "Point", "coordinates": [2.1886, 48.8086]}, "properties": {"name": "Chaville", "pop": 20594}}, {"type": "Feature", "geometry": {"type": "Point", "coordinates": [3.1539, 50.6747]}, "properties": {"name": "Croix", "pop": 20566}}, {"type": "Feature", "geometry": {"type": "Point", "coordinates": [-1.6214, 47.1775]}, "properties": {"name": "Bouguenais", "pop": 20530}}, {"type": "Feature", "geometry": {"type": "Point", "coordinates": [2.4728, 48.8214]}, "properties": {"name": "Joinville-le-Pont", "pop": 20525}}, {"type": "Feature", "geometry": {"type": "Point", "coordinates": [4.4403, 46.8006]}, "properties": {"name": "Le Creusot", "pop": 20509}}, {"type": "Feature", "geometry": {"type": "Point", "coordinates": [6.9, 49.1881]}, "properties": {"name": "Forbach", "pop": 20493}}, {"type": "Feature", "geometry": {"type": "Point", "coordinates": [2.3439, 51.0314]}, "properties": {"name": "Saint-Pol-sur-Mer", "pop": 20479}}, {"type": "Feature", "geometry": {"type": "Point", "coordinates": [2.145, 48.85]}, "properties": {"name": "La Celle-Saint-Cloud", "pop": 20460}}, {"type": "Feature", "geometry": {"type": "Point", "coordinates": [2.6164, 48.9839]}, "properties": {"name": "Mitry-Mory", "pop": 20456}}, {"type": "Feature", "geometry": {"type": "Point", "coordinates": [2.3161, 48.7053]}, "properties": {"name": "Chilly-Mazarin", "pop": 20443}}, {"type": "Feature", "geometry": {"type": "Point", "coordinates": [4.8389, 47.0242]}, "properties": {"name": "Beaune", "pop": 20352}}, {"type": "Feature", "geometry": {"type": "Point", "coordinates": [-3.4553, 48.7325]}, "properties": {"name": "Lannion", "pop": 20315}}, {"type": "Feature", "geometry": {"type": "Point", "coordinates": [-1.2, 48.3517]}, "properties": {"name": "Fougères", "pop": 20307}}, {"type": "Feature", "geometry": {"type": "Point", "coordinates": [5.0514, 43.9194]}, "properties": {"name": "L'Isle-sur-la-Sorgue", "pop": 20244}}, {"type": "Feature", "geometry": {"type": "Point", "coordinates": [2.3022, 51.0131]}, "properties": {"name": "Grande-Synthe", "pop": 20239}}, {"type": "Feature", "geometry": {"type": "Point", "coordinates": [1.0872, 49.4625]}, "properties": {"name": "Mont-Saint-Aignan", "pop": 20165}}, {"type": "Feature", "geometry": {"type": "Point", "coordinates": [7.0672, 49.1106]}, "properties": {"name": "Sarreguemines", "pop": 20143}}, {"type": "Feature", "geometry": {"type": "Point", "coordinates": [1.4406, 44.4475]}, "properties": {"name": "Cahors", "pop": 20050}}, {"type": "Feature", "geometry": {"type": "Point", "coordinates": [-0.6125, 44.8828]}, "properties": {"name": "Bruges", "pop": 20020}}, {"type": "Feature", "geometry": {"type": "Point", "coordinates": [4.8953, 44.9475]}, "properties": {"name": "Bourg-lès-Valence", "pop": 19992}}, {"type": "Feature", "geometry": {"type": "Point", "coordinates": [6.3925, 45.6758]}, "properties": {"name": "Albertville", "pop": 19978}}, {"type": "Feature", "geometry": {"type": "Point", "coordinates": [-0.4886, 46.84]}, "properties": {"name": "Bressuire", "pop": 19970}}, {"type": "Feature", "geometry": {"type": "Point", "coordinates": [2.3444, 48.8133]}, "properties": {"name": "Gentilly", "pop": 19963}}, {"type": "Feature", "geometry": {"type": "Point", "coordinates": [3.1964, 45.7411]}, "properties": {"name": "Cournon-d'Auvergne", "pop": 19951}}, {"type": "Feature", "geometry": {"type": "Point", "coordinates": [7.1119, 43.7225]}, "properties": {"name": "Vence", "pop": 19917}}, {"type": "Feature", "geometry": {"type": "Point", "coordinates": [2.3533, 48.7664]}, "properties": {"name": "Chevilly-Larue", "pop": 19826}}, {"type": "Feature", "geometry": {"type": "Point", "coordinates": [3.0878, 50.6047]}, "properties": {"name": "Ronchin", "pop": 19787}}, {"type": "Feature", "geometry": {"type": "Point", "coordinates": [6.9947, 43.6]}, "properties": {"name": "Mougins", "pop": 19782}}, {"type": "Feature", "geometry": {"type": "Point", "coordinates": [-1.7458, 48.0247]}, "properties": {"name": "Bruz", "pop": 19683}}, {"type": "Feature", "geometry": {"type": "Point", "coordinates": [0.2256, 49.1456]}, "properties": {"name": "Lisieux", "pop": 19645}}, {"type": "Feature", "geometry": {"type": "Point", "coordinates": [7.4542, 48.2594]}, "properties": {"name": "Sélestat", "pop": 19589}}, {"type": "Feature", "geometry": {"type": "Point", "coordinates": [6.0742, 43.1497]}, "properties": {"name": "La Crau", "pop": 19556}}, {"type": "Feature", "geometry": {"type": "Point", "coordinates": [5.5031, 43.6942]}, "properties": {"name": "Pertuis", "pop": 19548}}, {"type": "Feature", "geometry": {"type": "Point", "coordinates": [2.6319, 48.5375]}, "properties": {"name": "Le Mée-sur-Seine", "pop": 19527}}, {"type": "Feature", "geometry": {"type": "Point", "coordinates": [-1.0917, 49.1144]}, "properties": {"name": "Saint-Lô", "pop": 19471}}, {"type": "Feature", "geometry": {"type": "Point", "coordinates": [5.1486, 45.6133]}, "properties": {"name": "Villefontaine", "pop": 19445}}, {"type": "Feature", "geometry": {"type": "Point", "coordinates": [-1.0431, 45.6231]}, "properties": {"name": "Royan", "pop": 19425}}, {"type": "Feature", "geometry": {"type": "Point", "coordinates": [-1.2094, 48.1233]}, "properties": {"name": "Vitré", "pop": 19365}}, {"type": "Feature", "geometry": {"type": "Point", "coordinates": [2.3775, 48.6883]}, "properties": {"name": "Juvisy-sur-Orge", "pop": 19292}}, {"type": "Feature", "geometry": {"type": "Point", "coordinates": [4.8533, 45.7086]}, "properties": {"name": "Saint-Fons", "pop": 19285}}, {"type": "Feature", "geometry": {"type": "Point", "coordinates": [6.9492, 48.2842]}, "properties": {"name": "Saint-Dié-des-Vosges", "pop": 19251}}, {"type": "Feature", "geometry": {"type": "Point", "coordinates": [3.3325, 46.5647]}, "properties": {"name": "Moulins", "pop": 19206}}, {"type": "Feature", "geometry": {"type": "Point", "coordinates": [4.8725, 44.0083]}, "properties": {"name": "Sorgues", "pop": 19006}}, {"type": "Feature", "geometry": {"type": "Point", "coordinates": [2.6111, 48.6925]}, "properties": {"name": "Brie-Comte-Robert", "pop": 19003}}, {"type": "Feature", "geometry": {"type": "Point", "coordinates": [3.1125, 45.8936]}, "properties": {"name": "Riom", "pop": 18820}}, {"type": "Feature", "geometry": {"type": "Point", "coordinates": [-0.8603, 47.3553]}, "properties": {"name": "La Pommeraye", "pop": 18808}}, {"type": "Feature", "geometry": {"type": "Point", "coordinates": [5.7794, 45.2086]}, "properties": {"name": "Meylan", "pop": 18770}}, {"type": "Feature", "geometry": {"type": "Point", "coordinates": [-1.6036, 48.1208]}, "properties": {"name": "Cesson-Sévigné", "pop": 18761}}, {"type": "Feature", "geometry": {"type": "Point", "coordinates": [-2.1033, 47.1156]}, "properties": {"name": "Pornic", "pop": 18745}}, {"type": "Feature", "geometry": {"type": "Point", "coordinates": [2.5339, 48.7983]}, "properties": {"name": "Chennevières-sur-Marne", "pop": 18710}}, {"type": "Feature", "geometry": {"type": "Point", "coordinates": [1.1656, 49.2153]}, "properties": {"name": "Louviers", "pop": 18705}}, {"type": "Feature", "geometry": {"type": "Point", "coordinates": [-0.8583, 47.3531]}, "properties": {"name": "Mauges-sur-Loire", "pop": 18695}}, {"type": "Feature", "geometry": {"type": "Point", "coordinates": [3.0736, 50.5989]}, "properties": {"name": "Faches-Thumesnil", "pop": 18619}}, {"type": "Feature", "geometry": {"type": "Point", "coordinates": [3.1878, 50.6553]}, "properties": {"name": "Hem", "pop": 18582}}, {"type": "Feature", "geometry": {"type": "Point", "coordinates": [7.7519, 48.6139]}, "properties": {"name": "Bischheim", "pop": 18558}}, {"type": "Feature", "geometry": {"type": "Point", "coordinates": [3.885, 45.0433]}, "properties": {"name": "Le Puy-en-Velay", "pop": 18540}}, {"type": "Feature", "geometry": {"type": "Point", "coordinates": [5.8022, 43.1192]}, "properties": {"name": "Sanary-sur-Mer", "pop": 18538}}, {"type": "Feature", "geometry": {"type": "Point", "coordinates": [-0.3292, 45.6958]}, "properties": {"name": "Cognac", "pop": 18532}}, {"type": "Feature", "geometry": {"type": "Point", "coordinates": [2.5922, 48.6261]}, "properties": {"name": "Moissy-Cramayel", "pop": 18511}}, {"type": "Feature", "geometry": {"type": "Point", "coordinates": [2.5222, 48.8411]}, "properties": {"name": "Bry-sur-Marne", "pop": 18503}}, {"type": "Feature", "geometry": {"type": "Point", "coordinates": [5.1642, 43.3831]}, "properties": {"name": "Châteauneuf-les-Martigues", "pop": 18455}}, {"type": "Feature", "geometry": {"type": "Point", "coordinates": [3.11, 50.6283]}, "properties": {"name": "Hellemmes-Lille", "pop": 18437}}, {"type": "Feature", "geometry": {"type": "Point", "coordinates": [4.86, 43.9642]}, "properties": {"name": "Le Pontet", "pop": 18386}}, {"type": "Feature", "geometry": {"type": "Point", "coordinates": [1.7428, 47.3583]}, "properties": {"name": "Romorantin-Lanthenay", "pop": 18373}}, {"type": "Feature", "geometry": {"type": "Point", "coordinates": [6.1039, 45.9036]}, "properties": {"name": "Cran-Gevrier", "pop": 18330}}, {"type": "Feature", "geometry": {"type": "Point", "coordinates": [-0.8892, 48.8386]}, "properties": {"name": "Vire", "pop": 18303}}, {"type": "Feature", "geometry": {"type": "Point", "coordinates": [-0.5258, 44.8364]}, "properties": {"name": "Floirac", "pop": 18300}}, {"type": "Feature", "geometry": {"type": "Point", "coordinates": [2.4875, 48.7742]}, "properties": {"name": "Bonneuil-sur-Marne", "pop": 18270}}, {"type": "Feature", "geometry": {"type": "Point", "coordinates": [6.5017, 48.5894]}, "properties": {"name": "Lunéville", "pop": 18262}}, {"type": "Feature", "geometry": {"type": "Point", "coordinates": [4.62, 44.1625]}, "properties": {"name": "Bagnols-sur-Cèze", "pop": 18112}}, {"type": "Feature", "geometry": {"type": "Point", "coordinates": [-1.7744, 43.3586]}, "properties": {"name": "Hendaye", "pop": 18102}}, {"type": "Feature", "geometry": {"type": "Point", "coordinates": [6.3547, 46.9061]}, "properties": {"name": "Pontarlier", "pop": 18067}}, {"type": "Feature", "geometry": {"type": "Point", "coordinates": [2.2997, 48.9878]}, "properties": {"name": "Soisy-sous-Montmorency", "pop": 18008}}, {"type": "Feature", "geometry": {"type": "Point", "coordinates": [5.6831, 45.2317]}, "properties": {"name": "Saint-Égrève", "pop": 17986}}, {"type": "Feature", "geometry": {"type": "Point", "coordinates": [6.2356, 44.0925]}, "properties": {"name": "Digne-les-Bains", "pop": 17979}}, {"type": "Feature", "geometry": {"type": "Point", "coordinates": [2.0625, 49.0592]}, "properties": {"name": "Osny", "pop": 17954}}, {"type": "Feature", "geometry": {"type": "Point", "coordinates": [4.7775, 45.7744]}, "properties": {"name": "Écully", "pop": 17944}}, {"type": "Feature", "geometry": {"type": "Point", "coordinates": [2.9581, 50.4931]}, "properties": {"name": "Carvin", "pop": 17909}}, {"type": "Feature", "geometry": {"type": "Point", "coordinates": [5.8619, 43.4533]}, "properties": {"name": "Saint-Maximin-la-Sainte-Baume", "pop": 17896}}, {"type": "Feature", "geometry": {"type": "Point", "coordinates": [1.7358, 48.9933]}, "properties": {"name": "Limay", "pop": 17885}}, {"type": "Feature", "geometry": {"type": "Point", "coordinates": [2.0386, 49.0108]}, "properties": {"name": "Jouy-le-Moutier", "pop": 17854}}, {"type": "Feature", "geometry": {"type": "Point", "coordinates": [6.0617, 43.4058]}, "properties": {"name": "Brignoles", "pop": 17850}}, {"type": "Feature", "geometry": {"type": "Point", "coordinates": [6.5786, 46.0603]}, "properties": {"name": "Cluses", "pop": 17795}}, {"type": "Feature", "geometry": {"type": "Point", "coordinates": [1.4986, 43.6103]}, "properties": {"name": "Balma", "pop": 17772}}, {"type": "Feature", "geometry": {"type": "Point", "coordinates": [2.1869, 48.8456]}, "properties": {"name": "Garches", "pop": 17743}}, {"type": "Feature", "geometry": {"type": "Point", "coordinates": [-0.8708, 47.6872]}, "properties": {"name": "Segré-en-Anjou Bleu", "pop": 17667}}, {"type": "Feature", "geometry": {"type": "Point", "coordinates": [-0.4867, 44.9247]}, "properties": {"name": "Ambarès-et-Lagrave", "pop": 17644}}, {"type": "Feature", "geometry": {"type": "Point", "coordinates": [7.1214, 43.6581]}, "properties": {"name": "Villeneuve-Loubet", "pop": 17548}}, {"type": "Feature", "geometry": {"type": "Point", "coordinates": [5.2331, 45.6194]}, "properties": {"name": "L'Isle-d'Abeau", "pop": 17515}}, {"type": "Feature", "geometry": {"type": "Point", "coordinates": [3.0669, 45.7736]}, "properties": {"name": "Chamalières", "pop": 17509}}, {"type": "Feature", "geometry": {"type": "Point", "coordinates": [-0.8892, 48.8386]}, "properties": {"name": "Vire Normandie", "pop": 17457}}, {"type": "Feature", "geometry": {"type": "Point", "coordinates": [2.8328, 50.4097]}, "properties": {"name": "Avion", "pop": 17435}}, {"type": "Feature", "geometry": {"type": "Point", "coordinates": [6.1886, 49.3589]}, "properties": {"name": "Yutz", "pop": 17391}}, {"type": "Feature", "geometry": {"type": "Point", "coordinates": [3.9021, 43.5678]}, "properties": {"name": "Lattes", "pop": 17351}}, {"type": "Feature", "geometry": {"type": "Point", "coordinates": [0.1653, 44.5]}, "properties": {"name": "Marmande", "pop": 17328}}, {"type": "Feature", "geometry": {"type": "Point", "coordinates": [2.5097, 48.7503]}, "properties": {"name": "Boissy-Saint-Léger", "pop": 17325}}, {"type": "Feature", "geometry": {"type": "Point", "coordinates": [6.6319, 45.9364]}, "properties": {"name": "Sallanches", "pop": 17319}}, {"type": "Feature", "geometry": {"type": "Point", "coordinates": [1.8803, 47.9514]}, "properties": {"name": "Saran", "pop": 17316}}, {"type": "Feature", "geometry": {"type": "Point", "coordinates": [0.3792, 49.7575]}, "properties": {"name": "Fécamp", "pop": 17313}}, {"type": "Feature", "geometry": {"type": "Point", "coordinates": [4.6708, 45.24]}, "properties": {"name": "Annonay", "pop": 17274}}, {"type": "Feature", "geometry": {"type": "Point", "coordinates": [-2.5167, 48.4694]}, "properties": {"name": "Lamballe-Armor", "pop": 17241}}, {"type": "Feature", "geometry": {"type": "Point", "coordinates": [2.1722, 48.8]}, "properties": {"name": "Viroflay", "pop": 17237}}, {"type": "Feature", "geometry": {"type": "Point", "coordinates": [-0.6375, 44.9106]}, "properties": {"name": "Blanquefort", "pop": 17215}}, {"type": "Feature", "geometry": {"type": "Point", "coordinates": [-1.2569, 47.3]}, "properties": {"name": "Orée d'Anjou", "pop": 17162}}, {"type": "Feature", "geometry": {"type": "Point", "coordinates": [4.3689, 46.6669]}, "properties": {"name": "Montceau-les-Mines", "pop": 17064}}, {"type": "Feature", "geometry": {"type": "Point", "coordinates": [4.2872, 45.3881]}, "properties": {"name": "Firminy", "pop": 17060}}, {"type": "Feature", "geometry": {"type": "Point", "coordinates": [0.6781, 47.4028]}, "properties": {"name": "Saint-Cyr-sur-Loire", "pop": 17029}}, {"type": "Feature", "geometry": {"type": "Point", "coordinates": [2.4039, 48.885]}, "properties": {"name": "Le Pré-Saint-Gervais", "pop": 16993}}, {"type": "Feature", "geometry": {"type": "Point", "coordinates": [-1.6425, 49.6253]}, "properties": {"name": "Octeville", "pop": 16948}}, {"type": "Feature", "geometry": {"type": "Point", "coordinates": [-2.3922, 47.2858]}, "properties": {"name": "La Baule-Escoublac", "pop": 16912}}, {"type": "Feature", "geometry": {"type": "Point", "coordinates": [5.3828, 49.1597]}, "properties": {"name": "Verdun", "pop": 16890}}, {"type": "Feature", "geometry": {"type": "Point", "coordinates": [1.9836, 48.8206]}, "properties": {"name": "Les Clayes-sous-Bois", "pop": 16804}}, {"type": "Feature", "geometry": {"type": "Point", "coordinates": [-2.4292, 47.3281]}, "properties": {"name": "Guérande", "pop": 16804}}, {"type": "Feature", "geometry": {"type": "Point", "coordinates": [1.8733, 47.9131]}, "properties": {"name": "Saint-Jean-de-la-Ruelle", "pop": 16768}}, {"type": "Feature", "geometry": {"type": "Point", "coordinates": [-0.3178, 47.4139]}, "properties": {"name": "Loire-Authion", "pop": 16765}}, {"type": "Feature", "geometry": {"type": "Point", "coordinates": [2.0942, 48.8669]}, "properties": {"name": "Marly-le-Roi", "pop": 16756}}, {"type": "Feature", "geometry": {"type": "Point", "coordinates": [5.8266, 46.1083]}, "properties": {"name": "Valserhône", "pop": 16712}}, {"type": "Feature", "geometry": {"type": "Point", "coordinates": [4.9403, 49.7019]}, "properties": {"name": "Sedan", "pop": 16667}}, {"type": "Feature", "geometry": {"type": "Point", "coordinates": [-0.6822, 44.7444]}, "properties": {"name": "Cestas", "pop": 16666}}, {"type": "Feature", "geometry": {"type": "Point", "coordinates": [5.5539, 46.6744]}, "properties": {"name": "Lons-le-Saunier", "pop": 16618}}, {"type": "Feature", "geometry": {"type": "Point", "coordinates": [2.0317, 48.8014]}, "properties": {"name": "Bois-d'Arcy", "pop": 16586}}, {"type": "Feature", "geometry": {"type": "Point", "coordinates": [-0.7028, 47.8286]}, "properties": {"name": "Château-Gontier-sur-Mayenne", "pop": 16584}}, {"type": "Feature", "geometry": {"type": "Point", "coordinates": [4.855, 43.8825]}, "properties": {"name": "Châteaurenard", "pop": 16545}}, {"type": "Feature", "geometry": {"type": "Point", "coordinates": [4.0075, 43.6164]}, "properties": {"name": "Mauguio", "pop": 16522}}, {"type": "Feature", "geometry": {"type": "Point", "coordinates": [-1.0136, 46.8711]}, "properties": {"name": "Les Herbiers", "pop": 16521}}, {"type": "Feature", "geometry": {"type": "Point", "coordinates": [2.1875, 48.6981]}, "properties": {"name": "Orsay", "pop": 16498}}, {"type": "Feature", "geometry": {"type": "Point", "coordinates": [1.6108, 43.1164]}, "properties": {"name": "Pamiers", "pop": 16473}}, {"type": "Feature", "geometry": {"type": "Point", "coordinates": [5.9444, 45.8667]}, "properties": {"name": "Rumilly", "pop": 16442}}, {"type": "Feature", "geometry": {"type": "Point", "coordinates": [2.4361, 48.5653]}, "properties": {"name": "Mennecy", "pop": 16433}}, {"type": "Feature", "geometry": {"type": "Point", "coordinates": [-1.4867, 47.2494]}, "properties": {"name": "Sainte-Luce-sur-Loire", "pop": 16400}}, {"type": "Feature", "geometry": {"type": "Point", "coordinates": [-1.6547, 49.6483]}, "properties": {"name": "Équeurdreville-Hainneville", "pop": 16392}}, {"type": "Feature", "geometry": {"type": "Point", "coordinates": [3.0836, 48.8156]}, "properties": {"name": "Coulommiers", "pop": 16374}}, {"type": "Feature", "geometry": {"type": "Point", "coordinates": [-4.2494, 48.4508]}, "properties": {"name": "Landerneau", "pop": 16363}}, {"type": "Feature", "geometry": {"type": "Point", "coordinates": [-0.4664, 47.4461]}, "properties": {"name": "Trélazé", "pop": 16333}}, {"type": "Feature", "geometry": {"type": "Point", "coordinates": [1.9739, 48.9797]}, "properties": {"name": "Verneuil-sur-Seine", "pop": 16280}}, {"type": "Feature", "geometry": {"type": "Point", "coordinates": [-1.0453, 47.2614]}, "properties": {"name": "Montrevault", "pop": 16275}}, {"type": "Feature", "geometry": {"type": "Point", "coordinates": [6.0842, 46.1442]}, "properties": {"name": "Saint-Julien-en-Genevois", "pop": 16222}}, {"type": "Feature", "geometry": {"type": "Point", "coordinates": [1.8983, 43.9006]}, "properties": {"name": "Gaillac", "pop": 16162}}, {"type": "Feature", "geometry": {"type": "Point", "coordinates": [2.2464, 49.0169]}, "properties": {"name": "Saint-Leu-la-Forêt", "pop": 16138}}, {"type": "Feature", "geometry": {"type": "Point", "coordinates": [4.0653, 45.6075]}, "properties": {"name": "Montbrison", "pop": 16123}}, {"type": "Feature", "geometry": {"type": "Point", "coordinates": [2.0214, 49.03]}, "properties": {"name": "Vauréal", "pop": 16079}}, {"type": "Feature", "geometry": {"type": "Point", "coordinates": [3.1131, 50.3631]}, "properties": {"name": "Sin-le-Noble", "pop": 16076}}, {"type": "Feature", "geometry": {"type": "Point", "coordinates": [2.3267, 49.0275]}, "properties": {"name": "Domont", "pop": 16065}}, {"type": "Feature", "geometry": {"type": "Point", "coordinates": [2.1061, 48.8967]}, "properties": {"name": "Le Pecq", "pop": 16059}}, {"type": "Feature", "geometry": {"type": "Point", "coordinates": [2.6289, 48.8547]}, "properties": {"name": "Noisiel", "pop": 16053}}, {"type": "Feature", "geometry": {"type": "Point", "coordinates": [-1.5789, 49.6408]}, "properties": {"name": "Tourlaville", "pop": 16040}}, {"type": "Feature", "geometry": {"type": "Point", "coordinates": [3.4269, 50.4481]}, "properties": {"name": "Saint-Amand-les-Eaux", "pop": 15974}}, {"type": "Feature", "geometry": {"type": "Point", "coordinates": [5.3578, 45.9581]}, "properties": {"name": "Ambérieu-en-Bugey", "pop": 15934}}, {"type": "Feature", "geometry": {"type": "Point", "coordinates": [2.4244, 48.9344]}, "properties": {"name": "Le Bourget", "pop": 15925}}, {"type": "Feature", "geometry": {"type": "Point", "coordinates": [1.465, 48.4383]}, "properties": {"name": "Lucé", "pop": 15921}}, {"type": "Feature", "geometry": {"type": "Point", "coordinates": [2.3528, 51.0231]}, "properties": {"name": "Petite-Synthe", "pop": 15911}}, {"type": "Feature", "geometry": {"type": "Point", "coordinates": [-3.2789, 47.8042]}, "properties": {"name": "Hennebont", "pop": 15910}}, {"type": "Feature", "geometry": {"type": "Point", "coordinates": [0.7281, 47.3908]}, "properties": {"name": "Saint-Pierre-des-Corps", "pop": 15898}}, {"type": "Feature", "geometry": {"type": "Point", "coordinates": [4.9436, 43.4544]}, "properties": {"name": "Fos-sur-Mer", "pop": 15862}}, {"type": "Feature", "geometry": {"type": "Point", "coordinates": [-1.1639, 44.3931]}, "properties": {"name": "Biscarrosse", "pop": 15836}}, {"type": "Feature", "geometry": {"type": "Point", "coordinates": [6.0619, 49.3297]}, "properties": {"name": "Hayange", "pop": 15806}}, {"type": "Feature", "geometry": {"type": "Point", "coordinates": [4.9886, 43.405]}, "properties": {"name": "Port-de-Bouc", "pop": 15802}}, {"type": "Feature", "geometry": {"type": "Point", "coordinates": [5.8944, 48.6761]}, "properties": {"name": "Toul", "pop": 15768}}, {"type": "Feature", "geometry": {"type": "Point", "coordinates": [4.24, 45.4994]}, "properties": {"name": "Saint-Just-Saint-Rambert", "pop": 15764}}, {"type": "Feature", "geometry": {"type": "Point", "coordinates": [1.0656, 47.7928]}, "properties": {"name": "Vendôme", "pop": 15758}}, {"type": "Feature", "geometry": {"type": "Point", "coordinates": [-1.0458, 47.2611]}, "properties": {"name": "Montrevault-sur-Èvre", "pop": 15726}}, {"type": "Feature", "geometry": {"type": "Point", "coordinates": [2.5447, 48.5328]}, "properties": {"name": "Saint-Fargeau-Ponthierry", "pop": 15724}}, {"type": "Feature", "geometry": {"type": "Point", "coordinates": [4.6433, 43.8072]}, "properties": {"name": "Beaucaire", "pop": 15692}}, {"type": "Feature", "geometry": {"type": "Point", "coordinates": [2.7456, 48.8753]}, "properties": {"name": "Montévrain", "pop": 15687}}, {"type": "Feature", "geometry": {"type": "Point", "coordinates": [5.7606, 49.5197]}, "properties": {"name": "Longwy", "pop": 15679}}, {"type": "Feature", "geometry": {"type": "Point", "coordinates": [4.7636, 45.7364]}, "properties": {"name": "Francheville", "pop": 15604}}, {"type": "Feature", "geometry": {"type": "Point", "coordinates": [2.7017, 48.4089]}, "properties": {"name": "Fontainebleau", "pop": 15583}}, {"type": "Feature", "geometry": {"type": "Point", "coordinates": [2.1322, 48.8939]}, "properties": {"name": "Le Vésinet", "pop": 15554}}, {"type": "Feature", "geometry": {"type": "Point", "coordinates": [7.3369, 47.8075]}, "properties": {"name": "Wittenheim", "pop": 15553}}, {"type": "Feature", "geometry": {"type": "Point", "coordinates": [-4.4008, 48.4336]}, "properties": {"name": "Guipavas", "pop": 15538}}, {"type": "Feature", "geometry": {"type": "Point", "coordinates": [3.0431, 50.585]}, "properties": {"name": "Wattignies", "pop": 15525}}, {"type": "Feature", "geometry": {"type": "Point", "coordinates": [0.1881, 49.5461]}, "properties": {"name": "Montivilliers", "pop": 15478}}, {"type": "Feature", "geometry": {"type": "Point", "coordinates": [1.0083, 49.2858]}, "properties": {"name": "Elbeuf", "pop": 15474}}, {"type": "Feature", "geometry": {"type": "Point", "coordinates": [6.6378, 43.4433]}, "properties": {"name": "Roquebrune-sur-Argens", "pop": 15442}}, {"type": "Feature", "geometry": {"type": "Point", "coordinates": [4.6594, 43.805]}, "properties": {"name": "Tarascon", "pop": 15396}}, {"type": "Feature", "geometry": {"type": "Point", "coordinates": [5.4144, 43.4544]}, "properties": {"name": "Bouc-Bel-Air", "pop": 15381}}, {"type": "Feature", "geometry": {"type": "Point", "coordinates": [1.4981, 43.5156]}, "properties": {"name": "Castanet-Tolosan", "pop": 15317}}, {"type": "Feature", "geometry": {"type": "Point", "coordinates": [-0.5889, 47.5069]}, "properties": {"name": "Avrillé", "pop": 15251}}, {"type": "Feature", "geometry": {"type": "Point", "coordinates": [4.6169, 45.5294]}, "properties": {"name": "Rive-de-Gier", "pop": 15242}}, {"type": "Feature", "geometry": {"type": "Point", "coordinates": [-3.8278, 48.5775]}, "properties": {"name": "Morlaix", "pop": 15194}}, {"type": "Feature", "geometry": {"type": "Point", "coordinates": [1.4756, 43.5461]}, "properties": {"name": "Ramonville-Saint-Agne", "pop": 15158}}, {"type": "Feature", "geometry": {"type": "Point", "coordinates": [2.5867, 49.2072]}, "properties": {"name": "Senlis", "pop": 15157}}, {"type": "Feature", "geometry": {"type": "Point", "coordinates": [3.2489, 45.5442]}, "properties": {"name": "Issoire", "pop": 15115}}, {"type": "Feature", "geometry": {"type": "Point", "coordinates": [2.3458, 48.9736]}, "properties": {"name": "Montmagny", "pop": 15105}}, {"type": "Feature", "geometry": {"type": "Point", "coordinates": [3.4031, 49.0464]}, "properties": {"name": "Château-Thierry", "pop": 15097}}, {"type": "Feature", "geometry": {"type": "Point", "coordinates": [6.1553, 47.6222]}, "properties": {"name": "Vesoul", "pop": 15078}}, {"type": "Feature", "geometry": {"type": "Point", "coordinates": [2.6278, 48.8361]}, "properties": {"name": "Lognes", "pop": 15074}}, {"type": "Feature", "geometry": {"type": "Point", "coordinates": [2.9869, 50.6092]}, "properties": {"name": "Haubourdin", "pop": 15074}}, {"type": "Feature", "geometry": {"type": "Point", "coordinates": [2.3569, 48.9986]}, "properties": {"name": "Saint-Brice-sous-Forêt", "pop": 15063}}, {"type": "Feature", "geometry": {"type": "Point", "coordinates": [-1.7728, 46.5361]}, "properties": {"name": "Olonne-sur-Mer", "pop": 15061}}, {"type": "Feature", "geometry": {"type": "Point", "coordinates": [2.2628, 48.7475]}, "properties": {"name": "Verrières-le-Buisson", "pop": 15057}}, {"type": "Feature", "geometry": {"type": "Point", "coordinates": [2.4167, 48.9872]}, "properties": {"name": "Arnouville", "pop": 15023}}]}