{"type": "FeatureCollection", "features": [{"type": "Feature", "geometry": {"type": "Point", "coordinates": [69.1658, 34.5328]}, "properties": {"name": "Kabul", "country": "Afghanistan", "pop": 5333284, "seats": 1}}, {"type": "Feature", "geometry": {"type": "Point", "coordinates": [19.8181, 41.3283]}, "properties": {"name": "Tirana", "country": "Albania", "pop": 389323, "seats": 1}}, {"type": "Feature", "geometry": {"type": "Point", "coordinates": [3.0586, 36.7764]}, "properties": {"name": "Algiers", "country": "Algeria", "pop": 2364230, "seats": 1}}, {"type": "Feature", "geometry": {"type": "Point", "coordinates": [1.5222, 42.5072]}, "properties": {"name": "Andorra la Vella", "country": "Andorra", "pop": 24042, "seats": 1}}, {"type": "Feature", "geometry": {"type": "Point", "coordinates": [13.2344, -8.8383]}, "properties": {"name": "Luanda", "country": "Angola", "pop": 2487444, "seats": 1}}, {"type": "Feature", "geometry": {"type": "Point", "coordinates": [-61.8447, 17.1211]}, "properties": {"name": "Q36262", "country": "Antigua and Barbuda", "pop": 21394, "seats": 1}}, {"type": "Feature", "geometry": {"type": "Point", "coordinates": [-58.3819, -34.5997]}, "properties": {"name": "Buenos Aires", "country": "Argentina", "pop": 3121707, "seats": 1}}, {"type": "Feature", "geometry": {"type": "Point", "coordinates": [44.5144, 40.1814]}, "properties": {"name": "Yerevan", "country": "Armenia", "pop": 1106300, "seats": 1}}, {"type": "Feature", "geometry": {"type": "Point", "coordinates": [149.1269, -35.2931]}, "properties": {"name": "Canberra", "country": "Australia", "pop": 381488, "seats": 1}}, {"type": "Feature", "geometry": {"type": "Point", "coordinates": [16.3725, 48.2083]}, "properties": {"name": "Vienna", "country": "Austria", "pop": 2028289, "seats": 1}}, {"type": "Feature", "geometry": {"type": "Point", "coordinates": [49.8352, 40.3667]}, "properties": {"name": "Baku", "country": "Azerbaijan", "pop": 2300500, "seats": 1}}, {"type": "Feature", "geometry": {"type": "Point", "coordinates": [50.5833, 26.2167]}, "properties": {"name": "Manama", "country": "Bahrain", "pop": 297502, "seats": 1}}, {"type": "Feature", "geometry": {"type": "Point", "coordinates": [90.3944, 23.7289]}, "properties": {"name": "Dhaka", "country": "Bangladesh", "pop": 16800000, "seats": 1}}, {"type": "Feature", "geometry": {"type": "Point", "coordinates": [-59.6167, 13.0975]}, "properties": {"name": "Bridgetown", "country": "Barbados", "pop": 98511, "seats": 1}}, {"type": "Feature", "geometry": {"type": "Point", "coordinates": [27.5618, 53.9022]}, "properties": {"name": "Minsk", "country": "Belarus", "pop": 1995091, "seats": 1}}, {"type": "Feature", "geometry": {"type": "Point", "coordinates": [4.3517, 50.8467]}, "properties": {"name": "Brussels", "country": "Belgium", "pop": 195546, "seats": 1}}, {"type": "Feature", "geometry": {"type": "Point", "coordinates": [-88.7675, 17.25]}, "properties": {"name": "Belmopan", "country": "Belize", "pop": 20754, "seats": 1}}, {"type": "Feature", "geometry": {"type": "Point", "coordinates": [2.6167, 6.4833]}, "properties": {"name": "Porto-Novo", "country": "Benin", "pop": 234168, "seats": 1}}, {"type": "Feature", "geometry": {"type": "Point", "coordinates": [89.6337, 27.4714]}, "properties": {"name": "Thimphu", "country": "Bhutan", "pop": 114551, "seats": 1}}, {"type": "Feature", "geometry": {"type": "Point", "coordinates": [-68.1333, -16.4958]}, "properties": {"name": "La Paz", "country": "Bolivia", "pop": 755732, "seats": 2}}, {"type": "Feature", "geometry": {"type": "Point", "coordinates": [18.4131, 43.8564]}, "properties": {"name": "Sarajevo", "country": "Bosnia and Herzegovina", "pop": 275524, "seats": 1}}, {"type": "Feature", "geometry": {"type": "Point", "coordinates": [25.9086, -24.6569]}, "properties": {"name": "Gaborone", "country": "Botswana", "pop": 235884, "seats": 1}}, {"type": "Feature", "geometry": {"type": "Point", "coordinates": [-47.8828, -15.7939]}, "properties": {"name": "Brasília", "country": "Brazil", "pop": 2996899, "seats": 1}}, {"type": "Feature", "geometry": {"type": "Point", "coordinates": [114.9167, 4.9167]}, "properties": {"name": "Bandar Seri Begawan", "country": "Brunei", "pop": 50000, "seats": 1}}, {"type": "Feature", "geometry": {"type": "Point", "coordinates": [23.3217, 42.6979]}, "properties": {"name": "Sofia", "country": "Bulgaria", "pop": 1213134, "seats": 1}}, {"type": "Feature", "geometry": {"type": "Point", "coordinates": [-1.5275, 12.3686]}, "properties": {"name": "Ouagadougou", "country": "Burkina Faso", "pop": 2453496, "seats": 1}}, {"type": "Feature", "geometry": {"type": "Point", "coordinates": [29.925, -3.4283]}, "properties": {"name": "Gitega", "country": "Burundi", "pop": 135467, "seats": 1}}, {"type": "Feature", "geometry": {"type": "Point", "coordinates": [104.921, 11.5696]}, "properties": {"name": "Phnom Penh", "country": "Cambodia", "pop": 2129371, "seats": 1}}, {"type": "Feature", "geometry": {"type": "Point", "coordinates": [11.5181, 3.8578]}, "properties": {"name": "Yaoundé", "country": "Cameroon", "pop": 2440462, "seats": 1}}, {"type": "Feature", "geometry": {"type": "Point", "coordinates": [-75.695, 45.4247]}, "properties": {"name": "Ottawa", "country": "Canada", "pop": 1017449, "seats": 1}}, {"type": "Feature", "geometry": {"type": "Point", "coordinates": [-23.5092, 14.9177]}, "properties": {"name": "Praia", "country": "Cape Verde", "pop": 159050, "seats": 1}}, {"type": "Feature", "geometry": {"type": "Point", "coordinates": [18.5628, 4.3732]}, "properties": {"name": "Bangui", "country": "Central African Republic", "pop": 889231, "seats": 1}}, {"type": "Feature", "geometry": {"type": "Point", "coordinates": [15.05, 12.11]}, "properties": {"name": "N'Djamena", "country": "Chad", "pop": 1092066, "seats": 1}}, {"type": "Feature", "geometry": {"type": "Point", "coordinates": [-70.65, -33.4375]}, "properties": {"name": "Santiago", "country": "Chile", "pop": 6257516, "seats": 1}}, {"type": "Feature", "geometry": {"type": "Point", "coordinates": [-74.0817, 4.6097]}, "properties": {"name": "Bogotá", "country": "Colombia", "pop": 8034649, "seats": 1}}, {"type": "Feature", "geometry": {"type": "Point", "coordinates": [43.2536, -11.7036]}, "properties": {"name": "Moroni", "country": "Comoros", "pop": 85400, "seats": 1}}, {"type": "Feature", "geometry": {"type": "Point", "coordinates": [-84.0796, 9.9327]}, "properties": {"name": "San José", "country": "Costa Rica", "pop": 335007, "seats": 1}}, {"type": "Feature", "geometry": {"type": "Point", "coordinates": [15.9772, 45.8131]}, "properties": {"name": "Zagreb", "country": "Croatia", "pop": 767131, "seats": 1}}, {"type": "Feature", "geometry": {"type": "Point", "coordinates": [-82.3589, 23.1367]}, "properties": {"name": "Havana", "country": "Cuba", "pop": 2492618, "seats": 1}}, {"type": "Feature", "geometry": {"type": "Point", "coordinates": [33.365, 35.1725]}, "properties": {"name": "Nicosia", "country": "Cyprus", "pop": 56848, "seats": 1}}, {"type": "Feature", "geometry": {"type": "Point", "coordinates": [14.4214, 50.0875]}, "properties": {"name": "Prague", "country": "Czech Republic", "pop": 1397880, "seats": 1}}, {"type": "Feature", "geometry": {"type": "Point", "coordinates": [15.3119, -4.3219]}, "properties": {"name": "Kinshasa", "country": "Democratic Republic of the Congo", "pop": 14565700, "seats": 1}}, {"type": "Feature", "geometry": {"type": "Point", "coordinates": [43.1481, 11.595]}, "properties": {"name": "Djibouti", "country": "Djibouti", "pop": 603900, "seats": 1}}, {"type": "Feature", "geometry": {"type": "Point", "coordinates": [-61.3833, 15.3]}, "properties": {"name": "Roseau", "country": "Dominica", "pop": 16571, "seats": 1}}, {"type": "Feature", "geometry": {"type": "Point", "coordinates": [-69.9361, 18.4625]}, "properties": {"name": "Santo Domingo", "country": "Dominican Republic", "pop": 2201941, "seats": 1}}, {"type": "Feature", "geometry": {"type": "Point", "coordinates": [-78.5125, -0.22]}, "properties": {"name": "Quito", "country": "Ecuador", "pop": 1763275, "seats": 1}}, {"type": "Feature", "geometry": {"type": "Point", "coordinates": [31.2358, 30.0444]}, "properties": {"name": "Cairo", "country": "Egypt", "pop": 9801536, "seats": 1}}, {"type": "Feature", "geometry": {"type": "Point", "coordinates": [-89.1912, 13.6976]}, "properties": {"name": "San Salvador", "country": "El Salvador", "pop": 330543, "seats": 1}}, {"type": "Feature", "geometry": {"type": "Point", "coordinates": [10.8222, 1.5917]}, "properties": {"name": "Ciudad de la Paz", "country": "Equatorial Guinea", "pop": 2000, "seats": 1}}, {"type": "Feature", "geometry": {"type": "Point", "coordinates": [38.9167, 15.3333]}, "properties": {"name": "Asmara", "country": "Eritrea", "pop": 963000, "seats": 1}}, {"type": "Feature", "geometry": {"type": "Point", "coordinates": [24.745, 59.4372]}, "properties": {"name": "Tallinn", "country": "Estonia", "pop": 457572, "seats": 1}}, {"type": "Feature", "geometry": {"type": "Point", "coordinates": [31.2064, -26.4465]}, "properties": {"name": "Lobamba", "country": "Eswatini", "pop": 114585, "seats": 2}}, {"type": "Feature", "geometry": {"type": "Point", "coordinates": [38.7525, 9.0358]}, "properties": {"name": "Addis Ababa", "country": "Ethiopia", "pop": 5704000, "seats": 1}}, {"type": "Feature", "geometry": {"type": "Point", "coordinates": [158.185, 6.9178]}, "properties": {"name": "Palikir", "country": "Federated States of Micronesia", "pop": 6227, "seats": 1}}, {"type": "Feature", "geometry": {"type": "Point", "coordinates": [178.4333, -18.1333]}, "properties": {"name": "Suva", "country": "Fiji", "pop": 88271, "seats": 1}}, {"type": "Feature", "geometry": {"type": "Point", "coordinates": [24.9375, 60.1708]}, "properties": {"name": "Helsinki", "country": "Finland", "pop": 694392, "seats": 1}}, {"type": "Feature", "geometry": {"type": "Point", "coordinates": [2.3522, 48.8567]}, "properties": {"name": "Paris", "country": "France", "pop": 2103778, "seats": 1}}, {"type": "Feature", "geometry": {"type": "Point", "coordinates": [9.4403, 0.4078]}, "properties": {"name": "Libreville", "country": "Gabon", "pop": 899000, "seats": 1}}, {"type": "Feature", "geometry": {"type": "Point", "coordinates": [44.7925, 41.7225]}, "properties": {"name": "Tbilisi", "country": "Georgia", "pop": 1331485, "seats": 1}}, {"type": "Feature", "geometry": {"type": "Point", "coordinates": [13.3833, 52.5167]}, "properties": {"name": "Berlin", "country": "Germany", "pop": 3782202, "seats": 1}}, {"type": "Feature", "geometry": {"type": "Point", "coordinates": [-0.1969, 5.556]}, "properties": {"name": "Accra", "country": "Ghana", "pop": 1782150, "seats": 1}}, {"type": "Feature", "geometry": {"type": "Point", "coordinates": [23.7281, 37.9842]}, "properties": {"name": "Athens", "country": "Greece", "pop": 643452, "seats": 1}}, {"type": "Feature", "geometry": {"type": "Point", "coordinates": [-61.7531, 12.0525]}, "properties": {"name": "St. George's", "country": "Grenada", "pop": 33734, "seats": 1}}, {"type": "Feature", "geometry": {"type": "Point", "coordinates": [-90.5133, 14.6417]}, "properties": {"name": "Guatemala City", "country": "Guatemala", "pop": 994938, "seats": 1}}, {"type": "Feature", "geometry": {"type": "Point", "coordinates": [-13.7122, 9.5092]}, "properties": {"name": "Conakry", "country": "Guinea", "pop": 1667864, "seats": 1}}, {"type": "Feature", "geometry": {"type": "Point", "coordinates": [-15.5833, 11.86]}, "properties": {"name": "Bissau", "country": "Guinea-Bissau", "pop": 492004, "seats": 1}}, {"type": "Feature", "geometry": {"type": "Point", "coordinates": [-58.1508, 6.8058]}, "properties": {"name": "Georgetown", "country": "Guyana", "pop": 235017, "seats": 1}}, {"type": "Feature", "geometry": {"type": "Point", "coordinates": [-72.3403, 18.5469]}, "properties": {"name": "Port-au-Prince", "country": "Haiti", "pop": 987310, "seats": 1}}, {"type": "Feature", "geometry": {"type": "Point", "coordinates": [-87.2047, 14.1058]}, "properties": {"name": "Tegucigalpa", "country": "Honduras", "pop": 1055729, "seats": 1}}, {"type": "Feature", "geometry": {"type": "Point", "coordinates": [19.0408, 47.4983]}, "properties": {"name": "Budapest", "country": "Hungary", "pop": 1685209, "seats": 1}}, {"type": "Feature", "geometry": {"type": "Point", "coordinates": [-21.935, 64.1475]}, "properties": {"name": "Reykjavík", "country": "Iceland", "pop": 138772, "seats": 1}}, {"type": "Feature", "geometry": {"type": "Point", "coordinates": [77.2089, 28.6139]}, "properties": {"name": "New Delhi", "country": "India", "pop": 249998, "seats": 1}}, {"type": "Feature", "geometry": {"type": "Point", "coordinates": [106.8269, -6.1753]}, "properties": {"name": "Jakarta", "country": "Indonesia", "pop": 11135191, "seats": 1}}, {"type": "Feature", "geometry": {"type": "Point", "coordinates": [51.3897, 35.6889]}, "properties": {"name": "Tehran", "country": "Iran", "pop": 8693706, "seats": 1}}, {"type": "Feature", "geometry": {"type": "Point", "coordinates": [44.3661, 33.3153]}, "properties": {"name": "Baghdad", "country": "Iraq", "pop": 8126755, "seats": 1}}, {"type": "Feature", "geometry": {"type": "Point", "coordinates": [-6.2603, 53.3497]}, "properties": {"name": "Dublin", "country": "Ireland", "pop": 592713, "seats": 1}}, {"type": "Feature", "geometry": {"type": "Point", "coordinates": [35.2342, 31.7767]}, "properties": {"name": "Jerusalem", "country": "Israel", "pop": 1050151, "seats": 1}}, {"type": "Feature", "geometry": {"type": "Point", "coordinates": [12.4828, 41.8931]}, "properties": {"name": "Rome", "country": "Italy", "pop": 2748109, "seats": 1}}, {"type": "Feature", "geometry": {"type": "Point", "coordinates": [-5.2742, 6.8161]}, "properties": {"name": "Yamoussoukro", "country": "Ivory Coast", "pop": 340234, "seats": 1}}, {"type": "Feature", "geometry": {"type": "Point", "coordinates": [-76.7931, 17.9714]}, "properties": {"name": "Kingston", "country": "Jamaica", "pop": 937700, "seats": 1}}, {"type": "Feature", "geometry": {"type": "Point", "coordinates": [139.6917, 35.6894]}, "properties": {"name": "Tokyo", "country": "Japan", "pop": 14264798, "seats": 1}}, {"type": "Feature", "geometry": {"type": "Point", "coordinates": [35.9333, 31.95]}, "properties": {"name": "Amman", "country": "Jordan", "pop": 4007526, "seats": 1}}, {"type": "Feature", "geometry": {"type": "Point", "coordinates": [71.4333, 51.1333]}, "properties": {"name": "Astana", "country": "Kazakhstan", "pop": 1078362, "seats": 1}}, {"type": "Feature", "geometry": {"type": "Point", "coordinates": [36.8172, -1.2864]}, "properties": {"name": "Nairobi", "country": "Kenya", "pop": 5545000, "seats": 1}}, {"type": "Feature", "geometry": {"type": "Point", "coordinates": [12.5689, 55.6761]}, "properties": {"name": "Copenhagen", "country": "Kingdom of Denmark", "pop": 667099, "seats": 1}}, {"type": "Feature", "geometry": {"type": "Point", "coordinates": [4.8833, 52.3667]}, "properties": {"name": "Amsterdam", "country": "Kingdom of the Netherlands", "pop": 921468, "seats": 1}}, {"type": "Feature", "geometry": {"type": "Point", "coordinates": [172.9667, 1.3333]}, "properties": {"name": "South Tarawa", "country": "Kiribati", "pop": 63439, "seats": 1}}, {"type": "Feature", "geometry": {"type": "Point", "coordinates": [47.98, 29.375]}, "properties": {"name": "Kuwait City", "country": "Kuwait", "pop": 2989000, "seats": 1}}, {"type": "Feature", "geometry": {"type": "Point", "coordinates": [74.5667, 42.8667]}, "properties": {"name": "Bishkek", "country": "Kyrgyzstan", "pop": 1191000, "seats": 1}}, {"type": "Feature", "geometry": {"type": "Point", "coordinates": [102.63, 17.98]}, "properties": {"name": "Vientiane", "country": "Laos", "pop": 948487, "seats": 1}}, {"type": "Feature", "geometry": {"type": "Point", "coordinates": [24.1069, 56.9475]}, "properties": {"name": "Riga", "country": "Latvia", "pop": 588911, "seats": 1}}, {"type": "Feature", "geometry": {"type": "Point", "coordinates": [35.5131, 33.8869]}, "properties": {"name": "Beirut", "country": "Lebanon", "pop": 2421354, "seats": 1}}, {"type": "Feature", "geometry": {"type": "Point", "coordinates": [27.48, -29.31]}, "properties": {"name": "Maseru", "country": "Lesotho", "pop": 343541, "seats": 1}}, {"type": "Feature", "geometry": {"type": "Point", "coordinates": [-10.8047, 6.3106]}, "properties": {"name": "Monrovia", "country": "Liberia", "pop": 1761032, "seats": 1}}, {"type": "Feature", "geometry": {"type": "Point", "coordinates": [13.1875, 32.8875]}, "properties": {"name": "Tripoli", "country": "Libya", "pop": 1293016, "seats": 1}}, {"type": "Feature", "geometry": {"type": "Point", "coordinates": [9.5222, 47.1406]}, "properties": {"name": "Vaduz", "country": "Liechtenstein", "pop": 5668, "seats": 1}}, {"type": "Feature", "geometry": {"type": "Point", "coordinates": [25.28, 54.6872]}, "properties": {"name": "Vilnius", "country": "Lithuania", "pop": 581475, "seats": 1}}, {"type": "Feature", "geometry": {"type": "Point", "coordinates": [6.13, 49.6114]}, "properties": {"name": "Luxembourg", "country": "Luxembourg", "pop": 137678, "seats": 1}}, {"type": "Feature", "geometry": {"type": "Point", "coordinates": [47.525, -18.91]}, "properties": {"name": "Antananarivo", "country": "Madagascar", "pop": 1275207, "seats": 1}}, {"type": "Feature", "geometry": {"type": "Point", "coordinates": [33.7681, -13.9864]}, "properties": {"name": "Lilongwe", "country": "Malawi", "pop": 989318, "seats": 1}}, {"type": "Feature", "geometry": {"type": "Point", "coordinates": [101.6953, 3.1478]}, "properties": {"name": "Kuala Lumpur", "country": "Malaysia", "pop": 9000280, "seats": 1}}, {"type": "Feature", "geometry": {"type": "Point", "coordinates": [73.5083, 4.175]}, "properties": {"name": "Malé", "country": "Maldives", "pop": 133019, "seats": 1}}, {"type": "Feature", "geometry": {"type": "Point", "coordinates": [-7.9922, 12.6458]}, "properties": {"name": "Bamako", "country": "Mali", "pop": 4227569, "seats": 1}}, {"type": "Feature", "geometry": {"type": "Point", "coordinates": [14.5125, 35.8978]}, "properties": {"name": "Valletta", "country": "Malta", "pop": 6444, "seats": 1}}, {"type": "Feature", "geometry": {"type": "Point", "coordinates": [171.3802, 7.0918]}, "properties": {"name": "Majuro", "country": "Marshall Islands", "pop": 30000, "seats": 1}}, {"type": "Feature", "geometry": {"type": "Point", "coordinates": [-15.9785, 18.0858]}, "properties": {"name": "Nouakchott", "country": "Mauritania", "pop": 1446761, "seats": 1}}, {"type": "Feature", "geometry": {"type": "Point", "coordinates": [57.4989, -20.1619]}, "properties": {"name": "Port Louis", "country": "Mauritius", "pop": 149194, "seats": 1}}, {"type": "Feature", "geometry": {"type": "Point", "coordinates": [-99.1359, 19.3538]}, "properties": {"name": "Mexico City", "country": "Mexico", "pop": 9209944, "seats": 1}}, {"type": "Feature", "geometry": {"type": "Point", "coordinates": [28.8353, 47.0228]}, "properties": {"name": "Chișinău", "country": "Moldova", "pop": 567038, "seats": 1}}, {"type": "Feature", "geometry": {"type": "Point", "coordinates": [7.42, 43.7311]}, "properties": {"name": "Monaco", "country": "Monaco", "pop": 38857, "seats": 1}}, {"type": "Feature", "geometry": {"type": "Point", "coordinates": [106.9055, 47.9214]}, "properties": {"name": "Ulaanbaatar", "country": "Mongolia", "pop": 1396288, "seats": 1}}, {"type": "Feature", "geometry": {"type": "Point", "coordinates": [19.2628, 42.4414]}, "properties": {"name": "Podgorica", "country": "Montenegro", "pop": 150977, "seats": 1}}, {"type": "Feature", "geometry": {"type": "Point", "coordinates": [-6.8414, 34.0211]}, "properties": {"name": "Rabat", "country": "Morocco", "pop": 515619, "seats": 1}}, {"type": "Feature", "geometry": {"type": "Point", "coordinates": [32.5733, -25.9689]}, "properties": {"name": "Maputo", "country": "Mozambique", "pop": 1133200, "seats": 1}}, {"type": "Feature", "geometry": {"type": "Point", "coordinates": [96.115, 19.7475]}, "properties": {"name": "Naypyidaw", "country": "Myanmar", "pop": 1160242, "seats": 1}}, {"type": "Feature", "geometry": {"type": "Point", "coordinates": [17.0836, -22.57]}, "properties": {"name": "Windhoek", "country": "Namibia", "pop": 486169, "seats": 1}}, {"type": "Feature", "geometry": {"type": "Point", "coordinates": [166.9209, -0.5477]}, "properties": {"name": "Yaren District", "country": "Nauru", "pop": 747, "seats": 1}}, {"type": "Feature", "geometry": {"type": "Point", "coordinates": [85.32, 27.71]}, "properties": {"name": "Kathmandu", "country": "Nepal", "pop": 845767, "seats": 1}}, {"type": "Feature", "geometry": {"type": "Point", "coordinates": [174.7772, -41.2889]}, "properties": {"name": "Wellington", "country": "New Zealand", "pop": 216200, "seats": 1}}, {"type": "Feature", "geometry": {"type": "Point", "coordinates": [-86.2737, 12.1547]}, "properties": {"name": "Managua", "country": "Nicaragua", "pop": 937489, "seats": 1}}, {"type": "Feature", "geometry": {"type": "Point", "coordinates": [2.1175, 13.515]}, "properties": {"name": "Niamey", "country": "Niger", "pop": 1496260, "seats": 1}}, {"type": "Feature", "geometry": {"type": "Point", "coordinates": [7.4914, 9.0556]}, "properties": {"name": "Abuja", "country": "Nigeria", "pop": 1693400, "seats": 1}}, {"type": "Feature", "geometry": {"type": "Point", "coordinates": [125.7475, 39.0167]}, "properties": {"name": "Pyongyang", "country": "North Korea", "pop": 2863000, "seats": 1}}, {"type": "Feature", "geometry": {"type": "Point", "coordinates": [21.4317, 41.9961]}, "properties": {"name": "Skopje", "country": "North Macedonia", "pop": 422540, "seats": 1}}, {"type": "Feature", "geometry": {"type": "Point", "coordinates": [10.7389, 59.9133]}, "properties": {"name": "Oslo", "country": "Norway", "pop": 717710, "seats": 1}}, {"type": "Feature", "geometry": {"type": "Point", "coordinates": [58.5922, 23.6139]}, "properties": {"name": "Muscat", "country": "Oman", "pop": 1421409, "seats": 1}}, {"type": "Feature", "geometry": {"type": "Point", "coordinates": [73.0679, 33.6007]}, "properties": {"name": "Rawalpindi", "country": "Pakistan", "pop": 2098231, "seats": 2}}, {"type": "Feature", "geometry": {"type": "Point", "coordinates": [134.6242, 7.5006]}, "properties": {"name": "Ngerulmud", "country": "Palau", "pop": 0, "seats": 1}}, {"type": "Feature", "geometry": {"type": "Point", "coordinates": [35.2339, 31.7834]}, "properties": {"name": "East Jerusalem", "country": "Palestine", "pop": 236000, "seats": 2}}, {"type": "Feature", "geometry": {"type": "Point", "coordinates": [-79.5347, 8.9711]}, "properties": {"name": "Panama City", "country": "Panama", "pop": 1540000, "seats": 1}}, {"type": "Feature", "geometry": {"type": "Point", "coordinates": [147.1494, -9.4789]}, "properties": {"name": "Port Moresby", "country": "Papua New Guinea", "pop": 317374, "seats": 1}}, {"type": "Feature", "geometry": {"type": "Point", "coordinates": [-57.6344, -25.28]}, "properties": {"name": "Asunción", "country": "Paraguay", "pop": 462241, "seats": 1}}, {"type": "Feature", "geometry": {"type": "Point", "coordinates": [116.4075, 39.904]}, "properties": {"name": "Beijing", "country": "People's Republic of China", "pop": 21893095, "seats": 1}}, {"type": "Feature", "geometry": {"type": "Point", "coordinates": [-77.0375, -12.06]}, "properties": {"name": "Lima", "country": "Peru", "pop": 9943800, "seats": 1}}, {"type": "Feature", "geometry": {"type": "Point", "coordinates": [120.9772, 14.5958]}, "properties": {"name": "Manila", "country": "Philippines", "pop": 1902590, "seats": 1}}, {"type": "Feature", "geometry": {"type": "Point", "coordinates": [21.0111, 52.23]}, "properties": {"name": "Warsaw", "country": "Poland", "pop": 1862402, "seats": 1}}, {"type": "Feature", "geometry": {"type": "Point", "coordinates": [-9.139, 38.708]}, "properties": {"name": "Lisbon", "country": "Portugal", "pop": 545796, "seats": 1}}, {"type": "Feature", "geometry": {"type": "Point", "coordinates": [51.5294, 25.2861]}, "properties": {"name": "Doha", "country": "Qatar", "pop": 1186023, "seats": 1}}, {"type": "Feature", "geometry": {"type": "Point", "coordinates": [15.2711, -4.2694]}, "properties": {"name": "Brazzaville", "country": "Republic of the Congo", "pop": 2145783, "seats": 1}}, {"type": "Feature", "geometry": {"type": "Point", "coordinates": [26.0978, 44.4134]}, "properties": {"name": "Bucharest", "country": "Romania", "pop": 1716961, "seats": 1}}, {"type": "Feature", "geometry": {"type": "Point", "coordinates": [37.6175, 55.7506]}, "properties": {"name": "Moscow", "country": "Russia", "pop": 13274285, "seats": 1}}, {"type": "Feature", "geometry": {"type": "Point", "coordinates": [30.115, -1.9525]}, "properties": {"name": "Kigali", "country": "Rwanda", "pop": 1745555, "seats": 1}}, {"type": "Feature", "geometry": {"type": "Point", "coordinates": [-62.7342, 17.2983]}, "properties": {"name": "Basseterre", "country": "Saint Kitts and Nevis", "pop": 12920, "seats": 1}}, {"type": "Feature", "geometry": {"type": "Point", "coordinates": [-60.9894, 14.0108]}, "properties": {"name": "Castries", "country": "Saint Lucia", "pop": 20000, "seats": 1}}, {"type": "Feature", "geometry": {"type": "Point", "coordinates": [-61.2274, 13.1553]}, "properties": {"name": "Kingstown", "country": "Saint Vincent and the Grenadines", "pop": 24518, "seats": 1}}, {"type": "Feature", "geometry": {"type": "Point", "coordinates": [-171.8333, -13.8333]}, "properties": {"name": "Apia", "country": "Samoa", "pop": 37708, "seats": 1}}, {"type": "Feature", "geometry": {"type": "Point", "coordinates": [12.4484, 43.932]}, "properties": {"name": "San Marino", "country": "San Marino", "pop": 4040, "seats": 1}}, {"type": "Feature", "geometry": {"type": "Point", "coordinates": [46.71, 24.65]}, "properties": {"name": "Riyadh", "country": "Saudi Arabia", "pop": 7009100, "seats": 1}}, {"type": "Feature", "geometry": {"type": "Point", "coordinates": [-17.432, 14.6726]}, "properties": {"name": "Dakar", "country": "Senegal", "pop": 1438725, "seats": 1}}, {"type": "Feature", "geometry": {"type": "Point", "coordinates": [20.4569, 44.8178]}, "properties": {"name": "Belgrade", "country": "Serbia", "pop": 1197714, "seats": 1}}, {"type": "Feature", "geometry": {"type": "Point", "coordinates": [55.4544, -4.6236]}, "properties": {"name": "Victoria", "country": "Seychelles", "pop": 24701, "seats": 1}}, {"type": "Feature", "geometry": {"type": "Point", "coordinates": [-13.2356, 8.4872]}, "properties": {"name": "Freetown", "country": "Sierra Leone", "pop": 951000, "seats": 1}}, {"type": "Feature", "geometry": {"type": "Point", "coordinates": [103.8, 1.3]}, "properties": {"name": "Singapore", "country": "Singapore", "pop": 5866139, "seats": 1}}, {"type": "Feature", "geometry": {"type": "Point", "coordinates": [17.1093, 48.1517]}, "properties": {"name": "Bratislava", "country": "Slovakia", "pop": 480902, "seats": 1}}, {"type": "Feature", "geometry": {"type": "Point", "coordinates": [14.5061, 46.0514]}, "properties": {"name": "Ljubljana", "country": "Slovenia", "pop": 284293, "seats": 1}}, {"type": "Feature", "geometry": {"type": "Point", "coordinates": [159.95, -9.4333]}, "properties": {"name": "Honiara", "country": "Solomon Islands", "pop": 84520, "seats": 1}}, {"type": "Feature", "geometry": {"type": "Point", "coordinates": [45.3419, 2.0392]}, "properties": {"name": "Mogadishu", "country": "Somalia", "pop": 2120000, "seats": 1}}, {"type": "Feature", "geometry": {"type": "Point", "coordinates": [18.4239, -33.9253]}, "properties": {"name": "Cape Town", "country": "South Africa", "pop": 3776313, "seats": 3}}, {"type": "Feature", "geometry": {"type": "Point", "coordinates": [126.99, 37.56]}, "properties": {"name": "Seoul", "country": "South Korea", "pop": 9668465, "seats": 1}}, {"type": "Feature", "geometry": {"type": "Point", "coordinates": [31.5825, 4.8539]}, "properties": {"name": "Juba", "country": "South Sudan", "pop": 500088, "seats": 1}}, {"type": "Feature", "geometry": {"type": "Point", "coordinates": [-3.7033, 40.4169]}, "properties": {"name": "Madrid", "country": "Spain", "pop": 3506730, "seats": 1}}, {"type": "Feature", "geometry": {"type": "Point", "coordinates": [79.8606, 6.9267]}, "properties": {"name": "Colombo", "country": "Sri Lanka", "pop": 647557, "seats": 2}}, {"type": "Feature", "geometry": {"type": "Point", "coordinates": [32.5265, 15.6031]}, "properties": {"name": "Khartoum", "country": "Sudan", "pop": 5345000, "seats": 1}}, {"type": "Feature", "geometry": {"type": "Point", "coordinates": [-55.1667, 5.8667]}, "properties": {"name": "Paramaribo", "country": "Suriname", "pop": 223757, "seats": 1}}, {"type": "Feature", "geometry": {"type": "Point", "coordinates": [18.0686, 59.3294]}, "properties": {"name": "Stockholm", "country": "Sweden", "pop": 984748, "seats": 1}}, {"type": "Feature", "geometry": {"type": "Point", "coordinates": [7.4474, 46.948]}, "properties": {"name": "Bern", "country": "Switzerland", "pop": 136988, "seats": 1}}, {"type": "Feature", "geometry": {"type": "Point", "coordinates": [36.2919, 33.5131]}, "properties": {"name": "Damascus", "country": "Syria", "pop": 2685360, "seats": 1}}, {"type": "Feature", "geometry": {"type": "Point", "coordinates": [6.7283, 0.3375]}, "properties": {"name": "São Tomé", "country": "São Tomé and Príncipe", "pop": 65468, "seats": 1}}, {"type": "Feature", "geometry": {"type": "Point", "coordinates": [68.7864, 38.5731]}, "properties": {"name": "Dushanbe", "country": "Tajikistan", "pop": 948251, "seats": 1}}, {"type": "Feature", "geometry": {"type": "Point", "coordinates": [35.746, -6.1835]}, "properties": {"name": "Dodoma", "country": "Tanzania", "pop": 213636, "seats": 1}}, {"type": "Feature", "geometry": {"type": "Point", "coordinates": [100.5167, 13.75]}, "properties": {"name": "Bangkok", "country": "Thailand", "pop": 5676648, "seats": 1}}, {"type": "Feature", "geometry": {"type": "Point", "coordinates": [-77.3386, 25.0781]}, "properties": {"name": "Nassau", "country": "The Bahamas", "pop": 227940, "seats": 1}}, {"type": "Feature", "geometry": {"type": "Point", "coordinates": [-16.5775, 13.4531]}, "properties": {"name": "Banjul", "country": "The Gambia", "pop": 31356, "seats": 1}}, {"type": "Feature", "geometry": {"type": "Point", "coordinates": [125.5783, -8.5536]}, "properties": {"name": "Dili", "country": "Timor-Leste", "pop": 222323, "seats": 1}}, {"type": "Feature", "geometry": {"type": "Point", "coordinates": [1.2158, 6.13]}, "properties": {"name": "Lomé", "country": "Togo", "pop": 2188376, "seats": 1}}, {"type": "Feature", "geometry": {"type": "Point", "coordinates": [-175.2018, -21.1343]}, "properties": {"name": "Nukuʻalofa", "country": "Tonga", "pop": 23221, "seats": 1}}, {"type": "Feature", "geometry": {"type": "Point", "coordinates": [-61.5167, 10.6667]}, "properties": {"name": "Port of Spain", "country": "Trinidad and Tobago", "pop": 49031, "seats": 1}}, {"type": "Feature", "geometry": {"type": "Point", "coordinates": [10.18, 36.8008]}, "properties": {"name": "Tunis", "country": "Tunisia", "pop": 602560, "seats": 1}}, {"type": "Feature", "geometry": {"type": "Point", "coordinates": [32.8387, 39.9358]}, "properties": {"name": "Ankara", "country": "Turkey", "pop": 5803482, "seats": 1}}, {"type": "Feature", "geometry": {"type": "Point", "coordinates": [58.3833, 37.95]}, "properties": {"name": "Ashgabat", "country": "Turkmenistan", "pop": 1030063, "seats": 1}}, {"type": "Feature", "geometry": {"type": "Point", "coordinates": [179.1174, -8.5048]}, "properties": {"name": "Funafuti", "country": "Tuvalu", "pop": 6025, "seats": 1}}, {"type": "Feature", "geometry": {"type": "Point", "coordinates": [32.5811, 0.3136]}, "properties": {"name": "Kampala", "country": "Uganda", "pop": 1680600, "seats": 1}}, {"type": "Feature", "geometry": {"type": "Point", "coordinates": [30.5236, 50.45]}, "properties": {"name": "Kyiv", "country": "Ukraine", "pop": 2952301, "seats": 1}}, {"type": "Feature", "geometry": {"type": "Point", "coordinates": [54.3969, 24.4511]}, "properties": {"name": "Abu Dhabi", "country": "United Arab Emirates", "pop": 1570000, "seats": 1}}, {"type": "Feature", "geometry": {"type": "Point", "coordinates": [-0.1275, 51.5072]}, "properties": {"name": "London", "country": "United Kingdom", "pop": 8799728, "seats": 1}}, {"type": "Feature", "geometry": {"type": "Point", "coordinates": [-77.0367, 38.895]}, "properties": {"name": "Washington, D.C.", "country": "United States", "pop": 689545, "seats": 1}}, {"type": "Feature", "geometry": {"type": "Point", "coordinates": [-56.1913, -34.9059]}, "properties": {"name": "Montevideo", "country": "Uruguay", "pop": 1302954, "seats": 1}}, {"type": "Feature", "geometry": {"type": "Point", "coordinates": [69.2797, 41.3111]}, "properties": {"name": "Tashkent", "country": "Uzbekistan", "pop": 2956384, "seats": 1}}, {"type": "Feature", "geometry": {"type": "Point", "coordinates": [168.3167, -17.7333]}, "properties": {"name": "Port Vila", "country": "Vanuatu", "pop": 49034, "seats": 1}}, {"type": "Feature", "geometry": {"type": "Point", "coordinates": [12.453, 41.904]}, "properties": {"name": "Vatican City", "country": "Vatican City", "pop": 882, "seats": 1}}, {"type": "Feature", "geometry": {"type": "Point", "coordinates": [-66.9144, 10.5061]}, "properties": {"name": "Caracas", "country": "Venezuela", "pop": 2245744, "seats": 1}}, {"type": "Feature", "geometry": {"type": "Point", "coordinates": [105.8412, 21.0245]}, "properties": {"name": "Hanoi", "country": "Vietnam", "pop": 8717600, "seats": 1}}, {"type": "Feature", "geometry": {"type": "Point", "coordinates": [44.2, 15.35]}, "properties": {"name": "Sanaa", "country": "Yemen", "pop": 2957000, "seats": 2}}, {"type": "Feature", "geometry": {"type": "Point", "coordinates": [28.2833, -15.4167]}, "properties": {"name": "Lusaka", "country": "Zambia", "pop": 2467563, "seats": 1}}, {"type": "Feature", "geometry": {"type": "Point", "coordinates": [31.0522, -17.8292]}, "properties": {"name": "Harare", "country": "Zimbabwe", "pop": 2150000, "seats": 1}}]}